{"version": 0.6, "generator": "Overpass API 0.7.56.9 76e5016d", "osm3s": {"timestamp_osm_base": "2021-08-10T02:01:52Z", "copyright": "The data included in this document is from www.openstreetmap.org. The data is made available under ODbL."}, "elements": [{"type": "node", "id": 3818709199, "lat": -12.1870395, "lon": -76.4628613, "tags": {"amenity": "restaurant"}}, {"type": "node", "id": 4933486079, "lat": -12.18023, "lon": -76.3566414}, {"type": "node", "id": 4933486080, "lat": -12.1806155, "lon": -76.3566492}, {"type": "node", "id": 4933486081, "lat": -12.1805598, "lon": -76.3559975}, {"type": "node", "id": 4933486082, "lat": -12.1801352, "lon": -76.3559332}, {"type": "node", "id": 4933486083, "lat": -12.1801233, "lon": -76.3562585}, {"type": "node", "id": 4933486084, "lat": -12.1801859, "lon": -76.3564607}, {"type": "node", "id": 4933486246, "lat": -12.1809041, "lon": -76.3579515, "tags": {"amenity": "restaurant"}}, {"type": "node", "id": 4941330595, "lat": -12.2386974, "lon": -76.3266666}, {"type": "node", "id": 4941330596, "lat": -12.2386875, "lon": -76.3265263}, {"type": "node", "id": 4941330597, "lat": -12.2386219, "lon": -76.3264145}, {"type": "node", "id": 4941330598, "lat": -12.2387431, "lon": -76.3260913}, {"type": "node", "id": 4941330599, "lat": -12.239049, "lon": -76.3261787}, {"type": "node", "id": 4941330600, "lat": -12.2394265, "lon": -76.3261198}, {"type": "node", "id": 4941330601, "lat": -12.2394741, "lon": -76.3264084}, {"type": "node", "id": 4941330602, "lat": -12.238896, "lon": -76.3266523}, {"type": "node", "id": 4943296999, "lat": -12.2186426, "lon": -76.5147404}, {"type": "node", "id": 4943297000, "lat": -12.21901, "lon": -76.5146625}, {"type": "node", "id": 4943297001, "lat": -12.2191153, "lon": -76.5151825}, {"type": "node", "id": 4943297002, "lat": -12.2187479, "lon": -76.5152604}, {"type": "node", "id": 4944376778, "lat": -12.2727126, "lon": -76.4167656}, {"type": "node", "id": 4944376779, "lat": -12.2727032, "lon": -76.416279}, {"type": "node", "id": 4944376780, "lat": -12.2731288, "lon": -76.4163317}, {"type": "node", "id": 4944376781, "lat": -12.2731116, "lon": -76.4168278}, {"type": "node", "id": 5564618677, "lat": -12.2394157, "lon": -76.3263134, "tags": {"addr:district": "Mariatana", "addr:full": "Jiron Bolivar S/n", "addr:province": "Huarochir\u00ed", "addr:subdistrict": "Mariatana", "amenity": "school", "ele": "3538", "isced:level": "2;1", "name": "Instituci\u00f3n Educativa 20573 Juan Pablo Ii", "note": "Gps_otras_fuentes (local)", "ref": "0250407;1257955", "source": "minedu.gob.pe"}}, {"type": "node", "id": 5564619248, "lat": -12.3138118, "lon": -76.3498174, "tags": {"addr:district": "Mariatana", "addr:full": "Chatacanchihuayque", "addr:province": "Huarochir\u00ed", "addr:subdistrict": "Chatacanchi Huayqui", "amenity": "school", "ele": "1932", "isced:level": "1", "name": "Instituci\u00f3n Educativa 20955-20", "note": "Med_gps (local)", "ref": "1260033", "source": "minedu.gob.pe"}}, {"type": "node", "id": 5564619253, "lat": -12.3362138, "lon": -76.3602154, "tags": {"addr:district": "Mariatana", "addr:full": "Carretera Plaza De Armas S/n", "addr:province": "Huarochir\u00ed", "addr:subdistrict": "Llaquimasca", "amenity": "school", "ele": "1501", "isced:level": "1", "name": "Instituci\u00f3n Educativa No. 20918", "note": "Med_gps (local)", "ref": "0638395", "source": "minedu.gob.pe"}}, {"type": "node", "id": 5595173574, "lat": -12.4490009, "lon": -76.4286785, "tags": {"addr:district": "Calango", "addr:full": "Anexo Minay", "addr:province": "Ca\u00f1ete", "addr:subdistrict": "Minay", "amenity": "school", "ele": "723", "isced:level": "1", "name": "Instituci\u00f3n Educativa 20210 San Martin De Porras", "note": "Med_gps (local)", "ref": "0252551", "source": "minedu.gob.pe"}}, {"type": "node", "id": 5595173600, "lat": -12.4772658, "lon": -76.4474634, "tags": {"addr:district": "Calango", "addr:full": "Anexo Huancani S/n", "addr:province": "Ca\u00f1ete", "addr:subdistrict": "Huancani", "amenity": "school", "ele": "637", "isced:level": "1", "name": "Instituci\u00f3n Educativa No. 20208", "note": "Gps_otras_fuentes (local)", "ref": "0252536", "source": "minedu.gob.pe"}}, {"type": "node", "id": 5595184796, "lat": -12.3958974, "lon": -76.4935094, "tags": {"addr:district": "Mariatana", "addr:full": "Santa Cruz De Pulacama S/n", "addr:province": "Huarochir\u00ed", "addr:subdistrict": "Pulacama", "amenity": "school", "ele": "974", "isced:level": "1", "name": "Instituci\u00f3n Educativa No. 20890", "note": "Med_gps (local)", "ref": "0589101", "source": "minedu.gob.pe"}}, {"type": "node", "id": 5595184801, "lat": -12.3775511, "lon": -76.465663, "tags": {"addr:district": "Mariatana", "addr:full": "Santa Rosa De Caputish", "addr:province": "Huarochir\u00ed", "addr:subdistrict": "Caputish", "amenity": "school", "ele": "1269", "isced:level": "2;1", "name": "Instituci\u00f3n educativa No. 20961", "note": "Med_gps (local)", "ref": "1648096;0855684", "source": "minedu.gob.pe"}}, {"type": "node", "id": 5595187502, "lat": -12.2979568, "lon": -76.507396, "tags": {"addr:district": "Santo Domingo de los Olleros", "addr:full": "Llaca Llaca Comunidad Campesina", "addr:province": "Huarochir\u00ed", "addr:subdistrict": "Llacallaca", "amenity": "school", "ele": "1248", "isced:level": "1", "name": "Instituci\u00f3n Educativa 550-30 Semillitas Del Ma\u00f1ana", "note": "Med_gps (local)", "ref": "1641547", "source": "minedu.gob.pe"}}, {"type": "node", "id": 5595188549, "lat": -12.3221203, "lon": -76.5116987, "tags": {"addr:district": "Mariatana", "addr:full": "Carretera Anexo Cuculi Villa Pampilla S/n", "addr:province": "Huarochir\u00ed", "addr:subdistrict": "Cuculi", "amenity": "school", "ele": "1079", "isced:level": "1;2", "name": "Instituci\u00f3n Educativa 20829 Daniel Alcides Carrion", "note": "Med_gps (local)", "ref": "0247593;1579283", "source": "minedu.gob.pe"}}, {"type": "node", "id": 5595346868, "lat": -12.1335755, "lon": -76.4356468, "tags": {"addr:city": "San Jos\u00e9 de los Chorrillos", "addr:district": "Cuenca", "addr:full": "Calle San Martin S/n", "addr:province": "Huarochir\u00ed", "addr:street": "Calle Progreso", "addr:subdistrict": "San Jose De Los Chorrillos", "amenity": "school", "denomination": "catholic", "ele": "2764", "isced:level": "1", "name": "Instituci\u00f3n Educativa No. 20629", "note": "Gps_otras_fuentes (local)", "ref": "0250951", "religion": "christian", "source": "minedu.gob.pe"}}, {"type": "node", "id": 5595348810, "lat": -12.1623, "lon": -76.3991, "tags": {"addr:district": "Langa", "addr:full": "Matarachi", "addr:province": "Huarochir\u00ed", "addr:subdistrict": "Santa Rosa De Matarachi", "amenity": "school", "ele": "3155", "fixme": "Ubicar el POI en el lugar que corresponde", "isced:level": "1", "name": "Instituci\u00f3n Educativa 20893 Abelardo Santisteban Tello", "note": "Gps_otras_fuentes (local)", "ref": "0589135", "source": "minedu.gob.pe"}}, {"type": "node", "id": 5595351468, "lat": -12.1588039, "lon": -76.4307013, "tags": {"addr:district": "Cuenca", "addr:full": "Carretera Lanchi Km 95", "addr:province": "Huarochir\u00ed", "addr:subdistrict": "Santa Cruz De Lanchi", "amenity": "school", "ele": "3080", "fixme": "Ubicar el POI en el lugar que corresponde", "isced:level": "1", "name": "Instituci\u00f3n Educativa No. 20843", "note": "Gps_otras_fuentes (local)", "ref": "0481440", "source": "minedu.gob.pe"}}, {"type": "node", "id": 5595354838, "lat": -12.1545597, "lon": -76.3717735, "tags": {"addr:district": "Langa", "addr:full": "Colcahua", "addr:province": "Huarochir\u00ed", "addr:subdistrict": "Colcahua", "amenity": "school", "ele": "3620", "isced:level": "1", "name": "Instituci\u00f3n Educativa No. 20942", "note": "Gps_otras_fuentes (local)", "ref": "0685891", "source": "minedu.gob.pe"}}, {"type": "node", "id": 5595356478, "lat": -12.1803095, "lon": -76.355899, "tags": {"addr:district": "Langa", "addr:full": "Parque Principal", "addr:province": "Huarochir\u00ed", "addr:subdistrict": "Escomarca", "amenity": "school", "ele": "3717", "isced:level": "1;2", "name": "Instituci\u00f3n Educativa 20558 Virgen De Las Mercedes", "note": "Gps_otras_fuentes (local)", "ref": "0250258;0904821", "source": "minedu.gob.pe"}}, {"type": "node", "id": 5595361066, "lat": -12.2241659, "lon": -76.4428448, "tags": {"addr:district": "Santo Domingo de los Olleros", "addr:full": "Jiron Julio Cesar Tello S/n", "addr:province": "Huarochir\u00ed", "addr:subdistrict": "Matara", "amenity": "school", "ele": "2860", "fixme": "Ubicar el POI en el lugar que corresponde", "isced:level": "1", "name": "Instituci\u00f3n Educativa 20612 San Martin De Porres", "note": "Ubicacion_web (local)", "ref": "0250787", "source": "minedu.gob.pe"}}, {"type": "node", "id": 5595363469, "lat": -12.2730699, "lon": -76.4166, "tags": {"addr:district": "Mariatana", "addr:full": "Calle Principal S/n", "addr:province": "Huarochir\u00ed", "addr:subdistrict": "Calahuaya", "amenity": "school", "ele": "2676", "isced:level": "1;2", "name": "Instituci\u00f3n Educativa 20570 Daniel Alomia Robles", "note": "Med_gps (local)", "ref": "0250373;1524966", "source": "minedu.gob.pe"}}, {"type": "node", "id": 5595364406, "lat": -12.2838069, "lon": -76.427956, "tags": {"addr:district": "Mariatana", "addr:full": "Carretera Principal S/n", "addr:province": "Huarochir\u00ed", "addr:subdistrict": "Chatacancha", "amenity": "school", "ele": "2629", "isced:level": "1", "name": "Instituci\u00f3n Educativa 20572 Glorioso San Cristobal", "note": "Med_gps (local)", "ref": "0250399", "source": "minedu.gob.pe"}}, {"type": "node", "id": 5595366241, "lat": -12.2574, "lon": -76.4752, "tags": {"addr:district": "Santo Domingo de los Olleros", "addr:full": "Avenida Lima S/n", "addr:province": "Huarochir\u00ed", "addr:subdistrict": "Piedra Grande", "amenity": "school", "ele": "1787", "isced:level": "1;2", "name": "Instituci\u00f3n Educativa 20840 Santiago Erik Antunez De Mayolo Rynning", "note": "Med_gps (local)", "ref": "0247908;1524842", "source": "minedu.gob.pe"}}, {"type": "node", "id": 5595366350, "lat": -12.2659856, "lon": -76.4883973, "tags": {"addr:district": "Santo Domingo de los Olleros", "addr:full": "Santa Cruz De Comalipa", "addr:province": "Huarochir\u00ed", "addr:subdistrict": "Santa Cruz De Comalipa", "amenity": "school", "ele": "1594", "isced:level": "1;2", "name": "Instituci\u00f3n Educativa No. 20914", "note": "Med_gps (local)", "ref": "0638361;1517135", "source": "minedu.gob.pe"}}, {"type": "node", "id": 5595367144, "lat": -12.2342751, "lon": -76.493077, "tags": {"addr:district": "Santo Domingo de los Olleros", "addr:full": "C.p. San Pedro De Huallanchi S/n", "addr:province": "Huarochir\u00ed", "addr:subdistrict": "San Pedro De Huallanche", "amenity": "school", "ele": "2110", "isced:level": "1;2", "name": "Instituci\u00f3n Educativa No. 20611", "note": "Med_gps (local)", "ref": "0250779;1754159", "source": "minedu.gob.pe"}}, {"type": "node", "id": 5595370647, "lat": -12.2184711, "lon": -76.514183, "tags": {"addr:district": "Santo Domingo de los Olleros", "addr:full": "Parque Principal", "addr:province": "Huarochir\u00ed", "addr:subdistrict": "Santo Domingo de los Olleros", "amenity": "school", "ele": "2839", "fixme": "Ubicar el POI en el lugar que corresponde", "isced:level": "1", "name": "Instituci\u00f3n Educativa 20677 Jose Faustino Sanchez Carrion", "note": "Med_gps (local)", "ref": "0251439", "source": "minedu.gob.pe"}}, {"type": "node", "id": 6223281445, "lat": -12.2325752, "lon": -76.4937654}, {"type": "node", "id": 6223281446, "lat": -12.2326332, "lon": -76.4937443}, {"type": "node", "id": 6223281447, "lat": -12.2326582, "lon": -76.4938163}, {"type": "node", "id": 6223281448, "lat": -12.2326001, "lon": -76.4938373}, {"type": "node", "id": 6428859290, "lat": -12.1278843, "lon": -76.4209215}, {"type": "node", "id": 6428859291, "lat": -12.1279892, "lon": -76.4212916}, {"type": "node", "id": 6428859292, "lat": -12.1284062, "lon": -76.4212031}, {"type": "node", "id": 6428859293, "lat": -12.1284403, "lon": -76.4213372}, {"type": "node", "id": 6428859294, "lat": -12.1289333, "lon": -76.4211951}, {"type": "node", "id": 6428859295, "lat": -12.1289621, "lon": -76.4209295}, {"type": "node", "id": 6428859296, "lat": -12.1287916, "lon": -76.4209403}, {"type": "node", "id": 6428859297, "lat": -12.1287156, "lon": -76.4204092}, {"type": "node", "id": 6428859298, "lat": -12.1283537, "lon": -76.4205219}, {"type": "node", "id": 6428859299, "lat": -12.1283747, "lon": -76.4207579}, {"type": "node", "id": 8292269357, "lat": -12.2573536, "lon": -76.4754177, "tags": {"addr:street": "Avenida Lima", "amenity": "clinic", "name": "Piedra Grande", "operator": "Gobierno Regional", "phone": "+51 1 5308188", "ref": "00007642", "ref:category": "I-2", "ref:microred": "6", "ref:red": "8"}}, {"type": "way", "id": 502992161, "nodes": [4933486079, 4933486080, 4933486081, 4933486082, 4933486083, 4933486084, 4933486079], "tags": {"amenity": "school", "name": "I.E. N\u00b0 20558 Virgen de Las Mercedes"}}, {"type": "way", "id": 503887537, "nodes": [4941330595, 4941330596, 4941330597, 4941330598, 4941330599, 4941330600, 4941330601, 4941330602, 4941330595], "tags": {"amenity": "school", "name": "I.E. N\u00b0 20573 Juan Pablo II"}}, {"type": "way", "id": 504127776, "nodes": [4943296999, 4943297000, 4943297001, 4943297002, 4943296999], "tags": {"addr:city": "Santo Domingo de los Olleros", "amenity": "school", "name": "Instituci\u00f3n Educativa Santo Domingo De Cucuya"}}, {"type": "way", "id": 504260865, "nodes": [4944376778, 4944376779, 4944376780, 4944376781, 4944376778], "tags": {"amenity": "school"}}, {"type": "way", "id": 664871487, "nodes": [6223281445, 6223281446, 6223281447, 6223281448, 6223281445], "tags": {"addr:city": "San Pedro de Huallanchi", "amenity": "clinic", "building": "yes", "healthcare": "clinic", "healthcare:speciality": "general", "name": "Puesto de Salud Huallanchi", "operator": "Gobierno Regional", "phone": "+511 5308188", "ref:category": "I-1", "ref:microred": "6", "ref:red": "8"}}, {"type": "way", "id": 685934998, "nodes": [6428859290, 6428859291, 6428859292, 6428859293, 6428859294, 6428859295, 6428859296, 6428859297, 6428859298, 6428859299, 6428859290], "tags": {"addr:city": "Langa", "amenity": "school", "name": "Instituci\u00f3n Educativa 20559 San Juan"}}]}