{"version": 0.6, "generator": "Overpass API 0.7.56.9 76e5016d", "osm3s": {"timestamp_osm_base": "2021-08-10T01:45:34Z", "copyright": "The data included in this document is from www.openstreetmap.org. The data is made available under ODbL."}, "elements": [{"type": "node", "id": 3818709199, "lat": -12.1870395, "lon": -76.4628613, "tags": {"amenity": "restaurant"}}, {"type": "node", "id": 4419356894, "lat": -12.1245681, "lon": -76.4199351}, {"type": "node", "id": 4419356895, "lat": -12.124642, "lon": -76.4195877}, {"type": "node", "id": 4419356896, "lat": -12.1248119, "lon": -76.41951}, {"type": "node", "id": 4419356897, "lat": -12.1250005, "lon": -76.4198251}, {"type": "node", "id": 4419356898, "lat": -12.1249498, "lon": -76.4199767}, {"type": "node", "id": 4480950455, "lat": -12.1592073, "lon": -76.429842}, {"type": "node", "id": 4480950456, "lat": -12.1592854, "lon": -76.4298673}, {"type": "node", "id": 4480950457, "lat": -12.1593259, "lon": -76.4297362}, {"type": "node", "id": 4480950458, "lat": -12.1592479, "lon": -76.4297109}, {"type": "node", "id": 4933486079, "lat": -12.18023, "lon": -76.3566414}, {"type": "node", "id": 4933486080, "lat": -12.1806155, "lon": -76.3566492}, {"type": "node", "id": 4933486081, "lat": -12.1805598, "lon": -76.3559975}, {"type": "node", "id": 4933486082, "lat": -12.1801352, "lon": -76.3559332}, {"type": "node", "id": 4933486083, "lat": -12.1801233, "lon": -76.3562585}, {"type": "node", "id": 4933486084, "lat": -12.1801859, "lon": -76.3564607}, {"type": "node", "id": 4933486085, "lat": -12.1805735, "lon": -76.3553963}, {"type": "node", "id": 4933486086, "lat": -12.1804508, "lon": -76.3553484}, {"type": "node", "id": 4933486087, "lat": -12.1803748, "lon": -76.3555523}, {"type": "node", "id": 4933486088, "lat": -12.1803534, "lon": -76.355544}, {"type": "node", "id": 4933486089, "lat": -12.1803437, "lon": -76.3555699}, {"type": "node", "id": 4933486090, "lat": -12.1805176, "lon": -76.3556377}, {"type": "node", "id": 4933486091, "lat": -12.1805286, "lon": -76.3556082}, {"type": "node", "id": 4933486092, "lat": -12.1804988, "lon": -76.3555965}, {"type": "node", "id": 4933486246, "lat": -12.1809041, "lon": -76.3579515, "tags": {"amenity": "restaurant"}}, {"type": "node", "id": 4941330595, "lat": -12.2386974, "lon": -76.3266666}, {"type": "node", "id": 4941330596, "lat": -12.2386875, "lon": -76.3265263}, {"type": "node", "id": 4941330597, "lat": -12.2386219, "lon": -76.3264145}, {"type": "node", "id": 4941330598, "lat": -12.2387431, "lon": -76.3260913}, {"type": "node", "id": 4941330599, "lat": -12.239049, "lon": -76.3261787}, {"type": "node", "id": 4941330600, "lat": -12.2394265, "lon": -76.3261198}, {"type": "node", "id": 4941330601, "lat": -12.2394741, "lon": -76.3264084}, {"type": "node", "id": 4941330602, "lat": -12.238896, "lon": -76.3266523}, {"type": "node", "id": 4943296999, "lat": -12.2186426, "lon": -76.5147404}, {"type": "node", "id": 4943297000, "lat": -12.21901, "lon": -76.5146625}, {"type": "node", "id": 4943297001, "lat": -12.2191153, "lon": -76.5151825}, {"type": "node", "id": 4943297002, "lat": -12.2187479, "lon": -76.5152604}, {"type": "node", "id": 4944376753, "lat": -12.2743225, "lon": -76.4165072}, {"type": "node", "id": 4944376754, "lat": -12.2744284, "lon": -76.4162044}, {"type": "node", "id": 4944376755, "lat": -12.2745077, "lon": -76.4162544}, {"type": "node", "id": 4944376756, "lat": -12.2744297, "lon": -76.4164794}, {"type": "node", "id": 4944376757, "lat": -12.2743863, "lon": -76.4165669}, {"type": "node", "id": 4944376778, "lat": -12.2727126, "lon": -76.4167656}, {"type": "node", "id": 4944376779, "lat": -12.2727032, "lon": -76.416279}, {"type": "node", "id": 4944376780, "lat": -12.2731288, "lon": -76.4163317}, {"type": "node", "id": 4944376781, "lat": -12.2731116, "lon": -76.4168278}, {"type": "node", "id": 4944376782, "lat": -12.2744646, "lon": -76.4163891}, {"type": "node", "id": 4944376783, "lat": -12.2744882, "lon": -76.4163162}, {"type": "node", "id": 4944376784, "lat": -12.2744805, "lon": -76.4164}, {"type": "node", "id": 4944376785, "lat": -12.2745014, "lon": -76.416331}, {"type": "node", "id": 4944377181, "lat": -12.2840143, "lon": -76.427985}, {"type": "node", "id": 4944377182, "lat": -12.2840781, "lon": -76.4275823}, {"type": "node", "id": 4944377183, "lat": -12.2841647, "lon": -76.4275971}, {"type": "node", "id": 4944377184, "lat": -12.2841029, "lon": -76.4280081}, {"type": "node", "id": 5260966404, "lat": -12.2344306, "lon": -76.4941388}, {"type": "node", "id": 5260966405, "lat": -12.2344424, "lon": -76.4940529}, {"type": "node", "id": 5260966406, "lat": -12.2342565, "lon": -76.4940262}, {"type": "node", "id": 5260966407, "lat": -12.2342447, "lon": -76.494112}, {"type": "node", "id": 5260966490, "lat": -12.2327527, "lon": -76.4940001}, {"type": "node", "id": 5260966491, "lat": -12.2327414, "lon": -76.4939656}, {"type": "node", "id": 5260966492, "lat": -12.2327134, "lon": -76.4939751}, {"type": "node", "id": 5260966493, "lat": -12.232676, "lon": -76.4938606}, {"type": "node", "id": 5260966494, "lat": -12.2327086, "lon": -76.4938495}, {"type": "node", "id": 5260966495, "lat": -12.2326976, "lon": -76.4938157}, {"type": "node", "id": 5260966496, "lat": -12.2325802, "lon": -76.4938559}, {"type": "node", "id": 5260966497, "lat": -12.23264, "lon": -76.4940387}, {"type": "node", "id": 5559621089, "lat": -12.3209593, "lon": -76.5123662}, {"type": "node", "id": 5559621095, "lat": -12.3208886, "lon": -76.5122599}, {"type": "node", "id": 5559621096, "lat": -12.3209272, "lon": -76.5123179}, {"type": "node", "id": 5559621097, "lat": -12.3208085, "lon": -76.5123157}, {"type": "node", "id": 5559621098, "lat": -12.3210004, "lon": -76.5124373}, {"type": "node", "id": 5559621101, "lat": -12.3208518, "lon": -76.512466}, {"type": "node", "id": 5559621111, "lat": -12.3208858, "lon": -76.5125172}, {"type": "node", "id": 5559621115, "lat": -12.3209551, "lon": -76.5123691}, {"type": "node", "id": 5559621117, "lat": -12.3208864, "lon": -76.5125393}, {"type": "node", "id": 5559621121, "lat": -12.3209012, "lon": -76.5125616}, {"type": "node", "id": 5559621123, "lat": -12.320896, "lon": -76.5125326}, {"type": "node", "id": 5559621128, "lat": -12.3209103, "lon": -76.5125553}, {"type": "node", "id": 5559621129, "lat": -12.3210391, "lon": -76.5124955}, {"type": "node", "id": 5559621130, "lat": -12.3209239, "lon": -76.5125758}, {"type": "node", "id": 5564618676, "lat": -12.2384026, "lon": -76.3258148, "tags": {"addr:district": "Mariatana", "addr:full": "Autopista Principal S/n", "addr:province": "Huarochir\u00ed", "addr:subdistrict": "Mariatana", "amenity": "kindergarten", "ele": "3538", "isced:level": "0", "name": "Instituci\u00f3n educativa inicial 20573 Juan Pablo Ii Ex 550-15", "note": "Gps_otras_fuentes (local)", "ref": "0905844", "source": "minedu.gob.pe"}}, {"type": "node", "id": 5564618677, "lat": -12.2394157, "lon": -76.3263134, "tags": {"addr:district": "Mariatana", "addr:full": "Jiron Bolivar S/n", "addr:province": "Huarochir\u00ed", "addr:subdistrict": "Mariatana", "amenity": "school", "ele": "3538", "isced:level": "2;1", "name": "Instituci\u00f3n Educativa 20573 Juan Pablo Ii", "note": "Gps_otras_fuentes (local)", "ref": "0250407;1257955", "source": "minedu.gob.pe"}}, {"type": "node", "id": 5564619248, "lat": -12.3138118, "lon": -76.3498174, "tags": {"addr:district": "Mariatana", "addr:full": "Chatacanchihuayque", "addr:province": "Huarochir\u00ed", "addr:subdistrict": "Chatacanchi Huayqui", "amenity": "school", "ele": "1932", "isced:level": "1", "name": "Instituci\u00f3n Educativa 20955-20", "note": "Med_gps (local)", "ref": "1260033", "source": "minedu.gob.pe"}}, {"type": "node", "id": 5564619253, "lat": -12.3362138, "lon": -76.3602154, "tags": {"addr:district": "Mariatana", "addr:full": "Carretera Plaza De Armas S/n", "addr:province": "Huarochir\u00ed", "addr:subdistrict": "Llaquimasca", "amenity": "school", "ele": "1501", "isced:level": "1", "name": "Instituci\u00f3n Educativa No. 20918", "note": "Med_gps (local)", "ref": "0638395", "source": "minedu.gob.pe"}}, {"type": "node", "id": 5595173573, "lat": -12.4492, "lon": -76.4287, "tags": {"addr:district": "Calango", "addr:full": "Calle Corpus Cristi Mz H Lote 1", "addr:province": "Ca\u00f1ete", "addr:subdistrict": "Minay", "amenity": "kindergarten", "ele": "723", "isced:level": "0", "name": "Instituci\u00f3n educativa inicial Mi Peque\u00f1o Mundo", "note": "Med-gps (cp)", "ref": "1713841", "source": "minedu.gob.pe"}}, {"type": "node", "id": 5595173574, "lat": -12.4490009, "lon": -76.4286785, "tags": {"addr:district": "Calango", "addr:full": "Anexo Minay", "addr:province": "Ca\u00f1ete", "addr:subdistrict": "Minay", "amenity": "school", "ele": "723", "isced:level": "1", "name": "Instituci\u00f3n Educativa 20210 San Martin De Porras", "note": "Med_gps (local)", "ref": "0252551", "source": "minedu.gob.pe"}}, {"type": "node", "id": 5595173600, "lat": -12.4772658, "lon": -76.4474634, "tags": {"addr:district": "Calango", "addr:full": "Anexo Huancani S/n", "addr:province": "Ca\u00f1ete", "addr:subdistrict": "Huancani", "amenity": "school", "ele": "637", "isced:level": "1", "name": "Instituci\u00f3n Educativa No. 20208", "note": "Gps_otras_fuentes (local)", "ref": "0252536", "source": "minedu.gob.pe"}}, {"type": "node", "id": 5595184796, "lat": -12.3958974, "lon": -76.4935094, "tags": {"addr:district": "Mariatana", "addr:full": "Santa Cruz De Pulacama S/n", "addr:province": "Huarochir\u00ed", "addr:subdistrict": "Pulacama", "amenity": "school", "ele": "974", "isced:level": "1", "name": "Instituci\u00f3n Educativa No. 20890", "note": "Med_gps (local)", "ref": "0589101", "source": "minedu.gob.pe"}}, {"type": "node", "id": 5595184801, "lat": -12.3775511, "lon": -76.465663, "tags": {"addr:district": "Mariatana", "addr:full": "Santa Rosa De Caputish", "addr:province": "Huarochir\u00ed", "addr:subdistrict": "Caputish", "amenity": "school", "ele": "1269", "isced:level": "2;1", "name": "Instituci\u00f3n educativa No. 20961", "note": "Med_gps (local)", "ref": "1648096;0855684", "source": "minedu.gob.pe"}}, {"type": "node", "id": 5595184802, "lat": -12.3775, "lon": -76.4656, "tags": {"addr:district": "Mariatana", "addr:full": "Santa Rosa De Caputish", "addr:province": "Huarochir\u00ed", "addr:subdistrict": "Caputish", "amenity": "kindergarten", "ele": "1269", "isced:level": "0", "name": "Instituci\u00f3n educativa inicial No. 20961", "note": "Med_gps (local)", "ref": "1629740", "source": "minedu.gob.pe"}}, {"type": "node", "id": 5595187501, "lat": -12.298, "lon": -76.5074, "tags": {"addr:district": "Santo Domingo de los Olleros", "addr:full": "Llaca Llaca Comunidad Campesina", "addr:province": "Huarochir\u00ed", "addr:subdistrict": "Llacallaca", "amenity": "kindergarten", "ele": "1248", "isced:level": "0", "name": "Instituci\u00f3n educativa inicial 550-30 Semillitas Del Ma\u00f1ana", "note": "Med_gps (local)", "ref": "1578343", "source": "minedu.gob.pe"}}, {"type": "node", "id": 5595187502, "lat": -12.2979568, "lon": -76.507396, "tags": {"addr:district": "Santo Domingo de los Olleros", "addr:full": "Llaca Llaca Comunidad Campesina", "addr:province": "Huarochir\u00ed", "addr:subdistrict": "Llacallaca", "amenity": "school", "ele": "1248", "isced:level": "1", "name": "Instituci\u00f3n Educativa 550-30 Semillitas Del Ma\u00f1ana", "note": "Med_gps (local)", "ref": "1641547", "source": "minedu.gob.pe"}}, {"type": "node", "id": 5595188548, "lat": -12.3222017, "lon": -76.5120004, "tags": {"addr:district": "Mariatana", "addr:full": "Anexo Cuculi S/n", "addr:province": "Huarochir\u00ed", "addr:subdistrict": "Cuculi", "amenity": "kindergarten", "ele": "1079", "isced:level": "0", "name": "Instituci\u00f3n educativa inicial No. 596", "note": "Med_gps (local)", "ref": "0750992", "source": "minedu.gob.pe"}}, {"type": "node", "id": 5595188549, "lat": -12.3221203, "lon": -76.5116987, "tags": {"addr:district": "Mariatana", "addr:full": "Carretera Anexo Cuculi Villa Pampilla S/n", "addr:province": "Huarochir\u00ed", "addr:subdistrict": "Cuculi", "amenity": "school", "ele": "1079", "isced:level": "1;2", "name": "Instituci\u00f3n Educativa 20829 Daniel Alcides Carrion", "note": "Med_gps (local)", "ref": "0247593;1579283", "source": "minedu.gob.pe"}}, {"type": "node", "id": 5595346868, "lat": -12.1335755, "lon": -76.4356468, "tags": {"addr:city": "San Jos\u00e9 de los Chorrillos", "addr:district": "Cuenca", "addr:full": "Calle San Martin S/n", "addr:province": "Huarochir\u00ed", "addr:street": "Calle Progreso", "addr:subdistrict": "San Jose De Los Chorrillos", "amenity": "school", "denomination": "catholic", "ele": "2764", "isced:level": "1", "name": "Instituci\u00f3n Educativa No. 20629", "note": "Gps_otras_fuentes (local)", "ref": "0250951", "religion": "christian", "source": "minedu.gob.pe"}}, {"type": "node", "id": 5595346870, "lat": -12.1256, "lon": -76.4217, "tags": {"addr:district": "Langa", "addr:full": "Jiron San Martin S/n", "addr:province": "Huarochir\u00ed", "addr:subdistrict": "Langa", "amenity": "kindergarten", "ele": "2865", "fixme": "Ubicar el POI en el lugar que corresponde", "isced:level": "0", "name": "Instituci\u00f3n educativa inicial 20559 San Juan Ex 369", "note": "Gps_otras_fuentes (local)", "ref": "0497222", "source": "minedu.gob.pe"}}, {"type": "node", "id": 5595348810, "lat": -12.1623, "lon": -76.3991, "tags": {"addr:district": "Langa", "addr:full": "Matarachi", "addr:province": "Huarochir\u00ed", "addr:subdistrict": "Santa Rosa De Matarachi", "amenity": "school", "ele": "3155", "fixme": "Ubicar el POI en el lugar que corresponde", "isced:level": "1", "name": "Instituci\u00f3n Educativa 20893 Abelardo Santisteban Tello", "note": "Gps_otras_fuentes (local)", "ref": "0589135", "source": "minedu.gob.pe"}}, {"type": "node", "id": 5595351468, "lat": -12.1588039, "lon": -76.4307013, "tags": {"addr:district": "Cuenca", "addr:full": "Carretera Lanchi Km 95", "addr:province": "Huarochir\u00ed", "addr:subdistrict": "Santa Cruz De Lanchi", "amenity": "school", "ele": "3080", "fixme": "Ubicar el POI en el lugar que corresponde", "isced:level": "1", "name": "Instituci\u00f3n Educativa No. 20843", "note": "Gps_otras_fuentes (local)", "ref": "0481440", "source": "minedu.gob.pe"}}, {"type": "node", "id": 5595351469, "lat": -12.1587862, "lon": -76.4307, "tags": {"addr:district": "Cuenca", "addr:full": "Carretera Lanchi Km 95", "addr:province": "Huarochir\u00ed", "addr:subdistrict": "Santa Cruz De Lanchi", "amenity": "kindergarten", "ele": "3080", "fixme": "Ubicar el POI en el lugar que corresponde", "isced:level": "0", "name": "Instituci\u00f3n educativa inicial No. 20843", "note": "Gps_otras_fuentes (local)", "ref": "1720663", "source": "minedu.gob.pe"}}, {"type": "node", "id": 5595354838, "lat": -12.1545597, "lon": -76.3717735, "tags": {"addr:district": "Langa", "addr:full": "Colcahua", "addr:province": "Huarochir\u00ed", "addr:subdistrict": "Colcahua", "amenity": "school", "ele": "3620", "isced:level": "1", "name": "Instituci\u00f3n Educativa No. 20942", "note": "Gps_otras_fuentes (local)", "ref": "0685891", "source": "minedu.gob.pe"}}, {"type": "node", "id": 5595356477, "lat": -12.1803, "lon": -76.3559, "tags": {"addr:district": "Langa", "addr:full": "Parque Principal", "addr:province": "Huarochir\u00ed", "addr:subdistrict": "Escomarca", "amenity": "kindergarten", "ele": "3717", "fixme": "Ubicar el POI en el lugar que corresponde", "isced:level": "0", "name": "Instituci\u00f3n educativa inicial 20558 Virgen De Las Mercedes", "note": "Gps_otras_fuentes (local)", "ref": "0904797", "source": "minedu.gob.pe"}}, {"type": "node", "id": 5595356478, "lat": -12.1803095, "lon": -76.355899, "tags": {"addr:district": "Langa", "addr:full": "Parque Principal", "addr:province": "Huarochir\u00ed", "addr:subdistrict": "Escomarca", "amenity": "school", "ele": "3717", "isced:level": "1;2", "name": "Instituci\u00f3n Educativa 20558 Virgen De Las Mercedes", "note": "Gps_otras_fuentes (local)", "ref": "0250258;0904821", "source": "minedu.gob.pe"}}, {"type": "node", "id": 5595361066, "lat": -12.2241659, "lon": -76.4428448, "tags": {"addr:district": "Santo Domingo de los Olleros", "addr:full": "Jiron Julio Cesar Tello S/n", "addr:province": "Huarochir\u00ed", "addr:subdistrict": "Matara", "amenity": "school", "ele": "2860", "fixme": "Ubicar el POI en el lugar que corresponde", "isced:level": "1", "name": "Instituci\u00f3n Educativa 20612 San Martin De Porres", "note": "Ubicacion_web (local)", "ref": "0250787", "source": "minedu.gob.pe"}}, {"type": "node", "id": 5595363468, "lat": -12.2731, "lon": -76.4166, "tags": {"addr:district": "Mariatana", "addr:full": "Calle Principal S/n", "addr:province": "Huarochir\u00ed", "addr:subdistrict": "Calahuaya", "amenity": "kindergarten", "ele": "2676", "fixme": "Ubicar el POI en el lugar que corresponde", "isced:level": "0", "name": "Instituci\u00f3n educativa inicial 20570 Daniel Alomia Robles", "note": "Med_gps (local)", "ref": "1470350", "source": "minedu.gob.pe"}}, {"type": "node", "id": 5595363469, "lat": -12.2730699, "lon": -76.4166, "tags": {"addr:district": "Mariatana", "addr:full": "Calle Principal S/n", "addr:province": "Huarochir\u00ed", "addr:subdistrict": "Calahuaya", "amenity": "school", "ele": "2676", "isced:level": "1;2", "name": "Instituci\u00f3n Educativa 20570 Daniel Alomia Robles", "note": "Med_gps (local)", "ref": "0250373;1524966", "source": "minedu.gob.pe"}}, {"type": "node", "id": 5595364405, "lat": -12.2838575, "lon": -76.4279712, "tags": {"addr:district": "Mariatana", "addr:full": "Carretera Principal S/n", "addr:province": "Huarochir\u00ed", "addr:subdistrict": "Chatacancha", "amenity": "kindergarten", "ele": "2629", "isced:level": "0", "name": "Instituci\u00f3n educativa inicial 20572 Glorioso San Cristobal", "note": "Med_gps (local)", "ref": "1403054", "source": "minedu.gob.pe"}}, {"type": "node", "id": 5595364406, "lat": -12.2838069, "lon": -76.427956, "tags": {"addr:district": "Mariatana", "addr:full": "Carretera Principal S/n", "addr:province": "Huarochir\u00ed", "addr:subdistrict": "Chatacancha", "amenity": "school", "ele": "2629", "isced:level": "1", "name": "Instituci\u00f3n Educativa 20572 Glorioso San Cristobal", "note": "Med_gps (local)", "ref": "0250399", "source": "minedu.gob.pe"}}, {"type": "node", "id": 5595366241, "lat": -12.2574, "lon": -76.4752, "tags": {"addr:district": "Santo Domingo de los Olleros", "addr:full": "Avenida Lima S/n", "addr:province": "Huarochir\u00ed", "addr:subdistrict": "Piedra Grande", "amenity": "school", "ele": "1787", "isced:level": "1;2", "name": "Instituci\u00f3n Educativa 20840 Santiago Erik Antunez De Mayolo Rynning", "note": "Med_gps (local)", "ref": "0247908;1524842", "source": "minedu.gob.pe"}}, {"type": "node", "id": 5595366242, "lat": -12.2578, "lon": -76.4761, "tags": {"addr:district": "Santo Domingo de los Olleros", "addr:full": "Anexo Santa Cruz De Piedra Grande S/n", "addr:province": "Huarochir\u00ed", "addr:subdistrict": "Piedra Grande", "amenity": "kindergarten", "ele": "1787", "fixme": "Ubicar el POI en el lugar que corresponde", "isced:level": "0", "name": "Instituci\u00f3n educativa inicial No. 616", "note": "Med_gps (local)", "ref": "1116284", "source": "minedu.gob.pe"}}, {"type": "node", "id": 5595366349, "lat": -12.2653, "lon": -76.4876, "tags": {"addr:district": "Santo Domingo de los Olleros", "addr:full": "Carretera Santa Cruz De Comalipa S/n", "addr:province": "Huarochir\u00ed", "addr:subdistrict": "Santa Cruz De Comalipa", "amenity": "kindergarten", "ele": "1594", "fixme": "Ubicar el POI en el lugar que corresponde", "isced:level": "0", "name": "Instituci\u00f3n educativa inicial No. 636", "note": "Med_gps (local)", "ref": "1227354", "source": "minedu.gob.pe"}}, {"type": "node", "id": 5595366350, "lat": -12.2659856, "lon": -76.4883973, "tags": {"addr:district": "Santo Domingo de los Olleros", "addr:full": "Santa Cruz De Comalipa", "addr:province": "Huarochir\u00ed", "addr:subdistrict": "Santa Cruz De Comalipa", "amenity": "school", "ele": "1594", "isced:level": "1;2", "name": "Instituci\u00f3n Educativa No. 20914", "note": "Med_gps (local)", "ref": "0638361;1517135", "source": "minedu.gob.pe"}}, {"type": "node", "id": 5595367143, "lat": -12.2327676, "lon": -76.4936022, "tags": {"addr:city": "San Pedro de Huallanche", "addr:district": "Santo Domingo de los Olleros", "addr:full": "C.p. San Pedro De Huallanchi S/n", "addr:province": "Huarochir\u00ed", "addr:subdistrict": "San Pedro De Huallanche", "amenity": "kindergarten", "ele": "2110", "fixme": "Ubicar el POI en el lugar que corresponde", "isced:level": "0", "name": "Instituci\u00f3n educativa inicial No. 600", "note": "Med_gps (local)", "ref": "1228246", "source": "minedu.gob.pe"}}, {"type": "node", "id": 5595367144, "lat": -12.2342751, "lon": -76.493077, "tags": {"addr:district": "Santo Domingo de los Olleros", "addr:full": "C.p. San Pedro De Huallanchi S/n", "addr:province": "Huarochir\u00ed", "addr:subdistrict": "San Pedro De Huallanche", "amenity": "school", "ele": "2110", "isced:level": "1;2", "name": "Instituci\u00f3n Educativa No. 20611", "note": "Med_gps (local)", "ref": "0250779;1754159", "source": "minedu.gob.pe"}}, {"type": "node", "id": 5595370646, "lat": -12.218423, "lon": -76.514172, "tags": {"addr:district": "Santo Domingo de los Olleros", "addr:full": "Parque Principal", "addr:province": "Huarochir\u00ed", "addr:subdistrict": "Santo Domingo de los Olleros", "amenity": "kindergarten", "ele": "2839", "fixme": "Ubicar el POI en el lugar que corresponde", "isced:level": "0", "name": "Instituci\u00f3n educativa inicial 20677 Jose Faustino Sanchez Carrion", "note": "Med_gps (local)", "ref": "1573989", "source": "minedu.gob.pe"}}, {"type": "node", "id": 5595370647, "lat": -12.2184711, "lon": -76.514183, "tags": {"addr:district": "Santo Domingo de los Olleros", "addr:full": "Parque Principal", "addr:province": "Huarochir\u00ed", "addr:subdistrict": "Santo Domingo de los Olleros", "amenity": "school", "ele": "2839", "fixme": "Ubicar el POI en el lugar que corresponde", "isced:level": "1", "name": "Instituci\u00f3n Educativa 20677 Jose Faustino Sanchez Carrion", "note": "Med_gps (local)", "ref": "0251439", "source": "minedu.gob.pe"}}, {"type": "node", "id": 6223234630, "lat": -12.22351, "lon": -76.4430813}, {"type": "node", "id": 6223234631, "lat": -12.2237523, "lon": -76.4430572}, {"type": "node", "id": 6223234632, "lat": -12.2237579, "lon": -76.4431158}, {"type": "node", "id": 6223234633, "lat": -12.2235155, "lon": -76.4431399}, {"type": "node", "id": 6223234634, "lat": -12.2237558, "lon": -76.4430939}, {"type": "node", "id": 6223281445, "lat": -12.2325752, "lon": -76.4937654}, {"type": "node", "id": 6223281446, "lat": -12.2326332, "lon": -76.4937443}, {"type": "node", "id": 6223281447, "lat": -12.2326582, "lon": -76.4938163}, {"type": "node", "id": 6223281448, "lat": -12.2326001, "lon": -76.4938373}, {"type": "node", "id": 6428859290, "lat": -12.1278843, "lon": -76.4209215}, {"type": "node", "id": 6428859291, "lat": -12.1279892, "lon": -76.4212916}, {"type": "node", "id": 6428859292, "lat": -12.1284062, "lon": -76.4212031}, {"type": "node", "id": 6428859293, "lat": -12.1284403, "lon": -76.4213372}, {"type": "node", "id": 6428859294, "lat": -12.1289333, "lon": -76.4211951}, {"type": "node", "id": 6428859295, "lat": -12.1289621, "lon": -76.4209295}, {"type": "node", "id": 6428859296, "lat": -12.1287916, "lon": -76.4209403}, {"type": "node", "id": 6428859297, "lat": -12.1287156, "lon": -76.4204092}, {"type": "node", "id": 6428859298, "lat": -12.1283537, "lon": -76.4205219}, {"type": "node", "id": 6428859299, "lat": -12.1283747, "lon": -76.4207579}, {"type": "node", "id": 6791802594, "lat": -12.1811534, "lon": -76.3578252, "tags": {"amenity": "doctors", "healthcare": "doctor", "healthcare:speciality": "general", "name": "Puesto de Salud Escomarca", "operator": "Ministerio de Salud", "phone": "+511 3559720", "ref:category": "I-2", "ref:microred": "2", "ref:red": "9"}}, {"type": "node", "id": 7050469571, "lat": -12.2370795, "lon": -76.3254856, "tags": {"addr:street": "Jir\u00f3n Barrios Altos", "amenity": "doctors", "name": "Mariatana", "operator": "Gobierno Regional", "phone": "+511 3559720", "ref:category": "I-1", "ref:microred": "2", "ref:red": "9"}}, {"type": "node", "id": 7050469572, "lat": -12.2744981, "lon": -76.4176592, "tags": {"amenity": "doctors", "name": "Calahuaya", "operator": "Gobierno Regional", "phone": "+511 3559720", "ref:category": "I-2", "ref:microred": "2", "ref:red": "9"}}, {"type": "node", "id": 7072515055, "lat": -12.1593502, "lon": -76.4316489, "tags": {"addr:street": "Calle Lima", "amenity": "doctors", "name": "Lanchi", "operator": "Gobierno Regional", "phone": "+511 3559720", "ref:category": "I-1", "ref:microred": "2", "ref:red": "9"}}, {"type": "node", "id": 7080428699, "lat": -12.2190675, "lon": -76.5144606, "tags": {"amenity": "doctors", "healthcare": "doctor", "name": "Puesto de Salud Santo Domingo de los Olleros", "operator": "Gobierno Regional", "phone": "+511 3559720", "ref:category": "I-1", "ref:microred": "2", "ref:red": "9"}}, {"type": "node", "id": 7080428700, "lat": -12.2237561, "lon": -76.443533, "tags": {"addr:street": "Jir\u00f3n Jose Galvez", "amenity": "doctors", "name": "Matara", "operator": "Gobierno Regional", "phone": "+511 3559720", "ref:category": "I-1", "ref:microred": "2", "ref:red": "9"}}, {"type": "node", "id": 7293286447, "lat": -12.1256102, "lon": -76.4213184}, {"type": "node", "id": 7293286448, "lat": -12.1256139, "lon": -76.4213245}, {"type": "node", "id": 7293286449, "lat": -12.1256496, "lon": -76.4213107}, {"type": "node", "id": 7293286450, "lat": -12.1256486, "lon": -76.4213041}, {"type": "node", "id": 7293286451, "lat": -12.1256194, "lon": -76.4213289}, {"type": "node", "id": 7293286452, "lat": -12.125626, "lon": -76.4213312}, {"type": "node", "id": 7293286453, "lat": -12.125633, "lon": -76.4213311}, {"type": "node", "id": 7293286454, "lat": -12.1256395, "lon": -76.4213286}, {"type": "node", "id": 7293286455, "lat": -12.1256449, "lon": -76.421324}, {"type": "node", "id": 7293286456, "lat": -12.1256483, "lon": -76.4213177}, {"type": "node", "id": 7293286457, "lat": -12.1256456, "lon": -76.4212982}, {"type": "node", "id": 7293286458, "lat": -12.1256409, "lon": -76.4212936}, {"type": "node", "id": 7293286459, "lat": -12.125635, "lon": -76.4212906}, {"type": "node", "id": 7293286460, "lat": -12.1256286, "lon": -76.4212898}, {"type": "node", "id": 7293286461, "lat": -12.1256222, "lon": -76.421291}, {"type": "node", "id": 7293286462, "lat": -12.1256165, "lon": -76.4212943}, {"type": "node", "id": 7293286463, "lat": -12.1256121, "lon": -76.4212992}, {"type": "node", "id": 7293286464, "lat": -12.1256094, "lon": -76.4213052}, {"type": "node", "id": 7293286465, "lat": -12.1256088, "lon": -76.4213119}, {"type": "node", "id": 7293286468, "lat": -12.1253743, "lon": -76.4212384, "tags": {"addr:city": "Langa", "addr:street": "Jir\u00f3n San Mart\u00edn", "amenity": "place_of_worship", "denomination": "catholic", "name": "Iglesia Virgen Mar\u00eda de La Asunci\u00f3n", "religion": "christian"}}, {"type": "node", "id": 7293289051, "lat": -12.131979, "lon": -76.4352432, "tags": {"addr:city": "San Jos\u00e9 de los Chorrillos", "addr:street": "Calle San Jos\u00e9 de los Chorrillos", "amenity": "townhall", "name": "Municipalidad Distrital San Jose de los Chorrillos", "townhall:type": "village"}}, {"type": "node", "id": 7293289056, "lat": -12.1322558, "lon": -76.4355798, "tags": {"addr:city": "San Jos\u00e9 de los Chorrillos", "addr:street": "Calle Porvenir", "amenity": "doctors", "healthcare": "doctor", "healthcare:speciality": "general", "name": "Puesto de Salud Chorrillos", "opening_hours": "Mo-Sa 08:00-20:00", "operator": "Gobierno Regional", "phone": "+511 3559720", "ref:category": "I-1", "ref:microred": "2", "ref:red": "9"}}, {"type": "node", "id": 7293343186, "lat": -12.1324332, "lon": -76.4354857, "tags": {"addr:city": "San Jos\u00e9 de los Chorrillos", "addr:street": "Calle Matucana", "amenity": "place_of_worship", "denomination": "catholic", "name": "Iglesia de San Jos\u00e9 de los Chorrillos", "religion": "christian"}}, {"type": "node", "id": 7293354047, "lat": -12.2184221, "lon": -76.5144962, "tags": {"addr:city": "Santo Domingo de los Olleros", "addr:street": "Calle Langa", "amenity": "place_of_worship", "denomination": "catholic", "name": "Templo de Santo Domingo de Guzm\u00e1n", "religion": "christian"}}, {"type": "node", "id": 7636757140, "lat": -12.3207725, "lon": -76.5123396}, {"type": "node", "id": 7674390295, "lat": -12.237092, "lon": -76.3256505, "tags": {"amenity": "place_of_worship", "denomination": "catholic", "name": "Iglesia de Mariatana", "religion": "christian"}}, {"type": "node", "id": 8292269357, "lat": -12.2573536, "lon": -76.4754177, "tags": {"addr:street": "Avenida Lima", "amenity": "clinic", "name": "Piedra Grande", "operator": "Gobierno Regional", "phone": "+51 1 5308188", "ref": "00007642", "ref:category": "I-2", "ref:microred": "6", "ref:red": "8"}}, {"type": "way", "id": 444455958, "nodes": [4419356894, 4419356895, 4419356896, 4419356897, 4419356898, 4419356894], "tags": {"addr:city": "Langa", "addr:street": "Jir\u00f3n Nicanor Mujica", "amenity": "hospital", "healthcare": "hospital", "healthcare:speciality": "general", "name": "Centro de Salud Langa", "operator": "Gobierno Regional", "operator:type": "public", "phone": "+511 3559720", "ref:category": "I-3", "ref:microred": "2", "ref:red": "9"}}, {"type": "way", "id": 451263968, "nodes": [4480950455, 4480950456, 4480950457, 4480950458, 4480950455], "tags": {"addr:city": "Santa Cruz de Lanchi", "amenity": "place_of_worship", "building": "yes", "denomination": "catholic", "name": "Iglesia de Santa Cruz de Lanchi", "religion": "christian"}}, {"type": "way", "id": 502992161, "nodes": [4933486079, 4933486080, 4933486081, 4933486082, 4933486083, 4933486084, 4933486079], "tags": {"amenity": "school", "name": "I.E. N\u00b0 20558 Virgen de Las Mercedes"}}, {"type": "way", "id": 502992162, "nodes": [4933486085, 4933486086, 4933486087, 4933486088, 4933486089, 4933486090, 4933486091, 4933486092, 4933486085], "tags": {"amenity": "place_of_worship", "building": "yes", "denomination": "catholic", "name": "Iglesia de Escomarca", "religion": "christian"}}, {"type": "way", "id": 503887537, "nodes": [4941330595, 4941330596, 4941330597, 4941330598, 4941330599, 4941330600, 4941330601, 4941330602, 4941330595], "tags": {"amenity": "school", "name": "I.E. N\u00b0 20573 Juan Pablo II"}}, {"type": "way", "id": 504127776, "nodes": [4943296999, 4943297000, 4943297001, 4943297002, 4943296999], "tags": {"addr:city": "Santo Domingo de los Olleros", "amenity": "school", "name": "Instituci\u00f3n Educativa Santo Domingo De Cucuya"}}, {"type": "way", "id": 504260859, "nodes": [4944376753, 4944376754, 4944376755, 4944376783, 4944376785, 4944376784, 4944376782, 4944376756, 4944376757, 4944376753], "tags": {"amenity": "place_of_worship", "building": "yes", "name": "Igleisa San Francisco de Calaguaya", "religion": "christian"}}, {"type": "way", "id": 504260865, "nodes": [4944376778, 4944376779, 4944376780, 4944376781, 4944376778], "tags": {"amenity": "school"}}, {"type": "way", "id": 504260978, "nodes": [4944377181, 4944377182, 4944377183, 4944377184, 4944377181], "tags": {"amenity": "place_of_worship", "building": "yes", "denomination": "catholic", "name": "Iglesia de Chatacancha", "religion": "christian"}}, {"type": "way", "id": 544234962, "nodes": [5260966407, 5260966406, 5260966405, 5260966404, 5260966407], "tags": {"amenity": "community_centre", "building": "yes", "name": "Local comunal Huallanchi"}}, {"type": "way", "id": 544234990, "nodes": [5260966497, 5260966496, 5260966495, 5260966494, 5260966493, 5260966492, 5260966491, 5260966490, 5260966497], "tags": {"addr:city": "San Pedro de Huallanchi", "amenity": "place_of_worship", "building": "church", "denomination": "catholic", "name": "Iglesia Huallanchi", "religion": "christian", "roof:colour": "red", "roof:shape": "gabled"}}, {"type": "way", "id": 580916119, "nodes": [5559621129, 5559621130, 5559621128, 5559621121, 5559621117, 5559621123, 5559621111, 5559621098, 5559621129], "tags": {"amenity": "place_of_worship", "building": "yes", "religion": "christian"}}, {"type": "way", "id": 664867001, "nodes": [6223234630, 6223234631, 6223234634, 6223234632, 6223234633, 6223234630], "tags": {"addr:city": "San Pedro de Matar\u00e1", "amenity": "place_of_worship", "building": "yes", "denomination": "catholic", "name": "Iglesia de San Pedro de Matar\u00e1", "religion": "christian"}}, {"type": "way", "id": 664871487, "nodes": [6223281445, 6223281446, 6223281447, 6223281448, 6223281445], "tags": {"addr:city": "San Pedro de Huallanchi", "amenity": "clinic", "building": "yes", "healthcare": "clinic", "healthcare:speciality": "general", "name": "Puesto de Salud Huallanchi", "operator": "Gobierno Regional", "phone": "+511 5308188", "ref:category": "I-1", "ref:microred": "6", "ref:red": "8"}}, {"type": "way", "id": 685934998, "nodes": [6428859290, 6428859291, 6428859292, 6428859293, 6428859294, 6428859295, 6428859296, 6428859297, 6428859298, 6428859299, 6428859290], "tags": {"addr:city": "Langa", "amenity": "school", "name": "Instituci\u00f3n Educativa 20559 San Juan"}}, {"type": "way", "id": 781135754, "nodes": [7293286457, 7293286458, 7293286459, 7293286460, 7293286461, 7293286462, 7293286463, 7293286464, 7293286465, 7293286447, 7293286448, 7293286451, 7293286452, 7293286453, 7293286454, 7293286455, 7293286456, 7293286449, 7293286450, 7293286457], "tags": {"amenity": "fountain"}}, {"type": "way", "id": 817721716, "nodes": [5559621111, 5559621101, 7636757140, 5559621097, 5559621095, 5559621096, 5559621089, 5559621115, 5559621098, 5559621111], "tags": {"amenity": "doctors", "name": "Puesto de Salud Cucul\u00ed", "phone": "+51 1 5308188", "ref": "00007641", "ref:category": "I-2", "ref:microred": "6", "ref:red": "8"}}]}