{"version": 0.6, "generator": "Overpass API 0.7.56.9 76e5016d", "osm3s": {"timestamp_osm_base": "2021-08-10T02:01:52Z", "copyright": "The data included in this document is from www.openstreetmap.org. The data is made available under ODbL."}, "elements": [{"type": "node", "id": 1659962543, "lat": -12.0791381, "lon": -76.5111135, "tags": {"addr:city": "Esp\u00edritu Santo", "amenity": "restaurant", "name": "El Timuncito"}}, {"type": "node", "id": 1659962549, "lat": -12.0803056, "lon": -76.5113218, "tags": {"amenity": "restaurant", "name": "Restaurante turistico Allin Rickuy"}}, {"type": "node", "id": 2440777673, "lat": -11.8429189, "lon": -76.3820466}, {"type": "node", "id": 2440777680, "lat": -11.8430836, "lon": -76.3825164}, {"type": "node", "id": 2440777688, "lat": -11.8431028, "lon": -76.3825215}, {"type": "node", "id": 2440777692, "lat": -11.8433741, "lon": -76.3819112}, {"type": "node", "id": 2440777694, "lat": -11.8435745, "lon": -76.3821992}, {"type": "node", "id": 2440777697, "lat": -11.8435755, "lon": -76.3821744}, {"type": "node", "id": 4060961697, "lat": -11.9921157, "lon": -76.3979573, "tags": {"amenity": "school", "name": "I.E. I. 20908 \"Sant\u00edsimo Coraz\u00f3n de Jes\u00fas\""}}, {"type": "node", "id": 4289097986, "lat": -11.913136, "lon": -76.544873, "tags": {"addr:street": "Carretera Central", "amenity": "restaurant", "name": "El Pacayal"}}, {"type": "node", "id": 4428399470, "lat": -12.0808211, "lon": -76.5094056, "tags": {"amenity": "restaurant", "name": "Restaurant Panco"}}, {"type": "node", "id": 4978018354, "lat": -11.8478716, "lon": -76.388705}, {"type": "node", "id": 4978018355, "lat": -11.8482787, "lon": -76.3882213}, {"type": "node", "id": 4978018356, "lat": -11.8488079, "lon": -76.3887111}, {"type": "node", "id": 4978018357, "lat": -11.8483948, "lon": -76.3891748}, {"type": "node", "id": 4978018358, "lat": -11.8481325, "lon": -76.3889607}, {"type": "node", "id": 5058482682, "lat": -11.884191, "lon": -76.4400986}, {"type": "node", "id": 5058482683, "lat": -11.8842731, "lon": -76.4400629}, {"type": "node", "id": 5058482684, "lat": -11.8843173, "lon": -76.4401688}, {"type": "node", "id": 5058482685, "lat": -11.8842352, "lon": -76.4402046}, {"type": "node", "id": 5595318345, "lat": -11.8988568, "lon": -76.4310862, "tags": {"addr:district": "Surco", "addr:full": "Huaquicha", "addr:province": "Huarochir\u00ed", "addr:subdistrict": "Huaquicha", "amenity": "school", "ele": "2589", "isced:level": "1", "name": "Instituci\u00f3n Educativa No. 20614", "note": "Med_gps (local)", "ref": "0250803", "source": "minedu.gob.pe"}}, {"type": "node", "id": 5595318381, "lat": -12.0132, "lon": -76.4493, "tags": {"addr:district": "San Andr\u00e9s de Tupicocha", "addr:full": "Carretera Cesar Vallejo", "addr:province": "Huarochir\u00ed", "addr:subdistrict": "San Juan De Pacota", "amenity": "school", "ele": "3471", "fixme": "Ubicar el POI en el lugar que corresponde", "isced:level": "1", "name": "Instituci\u00f3n Educativa 20577 Mario Vargas Llosa", "note": "Ubicacion_web (local)", "ref": "0250449", "source": "minedu.gob.pe"}}, {"type": "node", "id": 5595318386, "lat": -11.9536, "lon": -76.4757, "tags": {"addr:district": "San Andr\u00e9s de Tupicocha", "addr:full": "Carretera San Antonio De Chinchina", "addr:province": "Huarochir\u00ed", "addr:subdistrict": "Chinchina", "amenity": "school", "ele": "3247", "fixme": "Ubicar el POI en el lugar que corresponde", "isced:level": "1", "name": "Instituci\u00f3n Educativa 20650 Antonio Raymondi", "note": "Med_gps (local)", "ref": "0251165", "source": "minedu.gob.pe"}}, {"type": "node", "id": 5595323111, "lat": -11.7638092, "lon": -76.304302, "tags": {"addr:district": "San Mateo", "addr:full": "Carretera Central Km. 94.5 Sector Daza", "addr:province": "Huarochir\u00ed", "addr:subdistrict": "San Mateo", "amenity": "school", "ele": "3155", "fixme": "Ubicar el POI en el lugar que corresponde", "isced:level": "1", "name": "Instituci\u00f3n Educativa San Mateo De Huanchor", "note": "Gps_otras_fuentes (local)", "ref": "0905331", "source": "minedu.gob.pe"}}, {"type": "node", "id": 5595323450, "lat": -11.7689, "lon": -76.3586, "tags": {"addr:district": "San Mateo", "addr:full": "Calle Collata S/n", "addr:province": "Huarochir\u00ed", "addr:subdistrict": "Collata", "amenity": "school", "ele": "3315", "fixme": "Ubicar el POI en el lugar que corresponde", "isced:level": "1", "name": "Instituci\u00f3n Educativa No. 20659", "note": "Gps_otras_fuentes (local)", "ref": "0251256", "source": "minedu.gob.pe"}}, {"type": "node", "id": 5595323456, "lat": -11.8064, "lon": -76.3275, "tags": {"addr:district": "San Mateo", "addr:full": "San Miguel De Viso", "addr:province": "Huarochir\u00ed", "addr:subdistrict": "San Miguel De Viso", "amenity": "school", "ele": "3107", "fixme": "Ubicar el POI en el lugar que corresponde", "isced:level": "1", "name": "Instituci\u00f3n Educativa No. 20662", "note": "Gps_otras_fuentes (local)", "ref": "0251280", "source": "minedu.gob.pe"}}, {"type": "node", "id": 5595324820, "lat": -11.8838, "lon": -76.44, "tags": {"addr:district": "Surco", "addr:full": "Parque Plaza Bolognesi", "addr:province": "Huarochir\u00ed", "addr:subdistrict": "San Jeronimo De Surco", "amenity": "school", "ele": "2017", "fixme": "Ubicar el POI en el lugar que corresponde", "isced:level": "2", "name": "Instituci\u00f3n Educativa 20615 San Jeronimo", "note": "Gps_otras_fuentes (local)", "ref": "0520528", "source": "minedu.gob.pe"}}, {"type": "node", "id": 5595325152, "lat": -11.8425289, "lon": -76.380908, "tags": {"addr:district": "Matucana", "addr:full": "Avenida La Florida S/n", "addr:province": "Huarochir\u00ed", "addr:subdistrict": "Matucana", "amenity": "school", "ele": "2386", "fixme": "Ubicar el POI en el lugar que corresponde", "isced:level": "1", "name": "Instituci\u00f3n Educativa Paul Harris", "note": "Gps_otras_fuentes (local)", "ref": "0770917", "source": "minedu.gob.pe"}}, {"type": "node", "id": 5595325155, "lat": -11.8444842, "lon": -76.3858946, "tags": {"addr:district": "Matucana", "addr:full": "Parque Independencia 173", "addr:province": "Huarochir\u00ed", "addr:subdistrict": "Matucana", "amenity": "school", "ele": "2386", "fixme": "Ubicar el POI en el lugar que corresponde", "isced:level": "1", "name": "Instituci\u00f3n Educativa 20567 Ricardo Bentin", "note": "Ubicacion_web_med (local)", "ref": "0250340", "source": "minedu.gob.pe"}}, {"type": "node", "id": 5595325156, "lat": -11.8369685, "lon": -76.3770973, "tags": {"addr:district": "Matucana", "addr:full": "Avenida Daniel Alcides Carrion S/n", "addr:province": "Huarochir\u00ed", "addr:subdistrict": "Cacachaqui", "amenity": "school", "ele": "2426", "fixme": "Ubicar el POI en el lugar que corresponde", "isced:level": "1", "name": "Instituci\u00f3n Educativa 20563 Ricardo Palma", "note": "Med_gps (local)", "ref": "0250308", "source": "minedu.gob.pe"}}, {"type": "node", "id": 5595325157, "lat": -11.8451928, "lon": -76.3875966, "tags": {"addr:district": "Matucana", "addr:full": "Avenida Ricardo Bentin 156", "addr:province": "Huarochir\u00ed", "addr:subdistrict": "Matucana", "amenity": "school", "ele": "2386", "fixme": "Ubicar el POI en el lugar que corresponde", "isced:level": "2", "name": "Instituci\u00f3n Educativa San Juan Bautista", "note": "Gps_otras_fuentes (local)", "ref": "0685560", "source": "minedu.gob.pe"}}, {"type": "node", "id": 5595325158, "lat": -11.8432184, "lon": -76.381992, "tags": {"addr:district": "Matucana", "addr:full": "Jiron La Florida S/n", "addr:province": "Huarochir\u00ed", "addr:subdistrict": "Matucana", "amenity": "school", "ele": "2386", "fixme": "Ubicar el POI en el lugar que corresponde", "isced:level": "1", "name": "Instituci\u00f3n Educativa 20568 Miguel Grau", "note": "Ubicacion_web_med (local)", "ref": "0250357", "source": "minedu.gob.pe"}}, {"type": "node", "id": 5595325335, "lat": -11.8655, "lon": -76.3569, "tags": {"addr:district": "Matucana", "addr:full": "Huillpa S/n", "addr:province": "Huarochir\u00ed", "addr:subdistrict": "Huillpa", "amenity": "school", "ele": "3261", "fixme": "Ubicar el POI en el lugar que corresponde", "isced:level": "1", "name": "Instituci\u00f3n Educativa No. 20641", "note": "Med_gps (local)", "ref": "0251074", "source": "minedu.gob.pe"}}, {"type": "node", "id": 5595327027, "lat": -11.8481, "lon": -76.3889, "tags": {"addr:district": "Matucana", "addr:full": "Jiron Puerto Nuevo S/n", "addr:province": "Huarochir\u00ed", "addr:subdistrict": "Matucana", "amenity": "school", "ele": "2386", "fixme": "Ubicar el POI en el lugar que corresponde", "isced:level": "2", "name": "Instituci\u00f3n Educativa Julio Cesar Tello", "note": "Gps_otras_fuentes (local)", "ref": "0286500", "source": "minedu.gob.pe"}}, {"type": "node", "id": 5595327034, "lat": -11.8492, "lon": -76.4186, "tags": {"addr:district": "Matucana", "addr:full": "Collana", "addr:province": "Huarochir\u00ed", "addr:subdistrict": "Collana", "amenity": "school", "ele": "2673", "fixme": "Ubicar el POI en el lugar que corresponde", "isced:level": "1", "name": "Instituci\u00f3n Educativa 20564 Leoncio Prado", "note": "Med_gps (local)", "ref": "0250316", "source": "minedu.gob.pe"}}, {"type": "node", "id": 5595327035, "lat": -11.8569, "lon": -76.4049, "tags": {"addr:district": "Matucana", "addr:full": "Huariqui\u00f1a", "addr:province": "Huarochir\u00ed", "addr:subdistrict": "Huariqui\u00f1a", "amenity": "school", "ele": "2320", "fixme": "Ubicar el POI en el lugar que corresponde", "isced:level": "1", "name": "Instituci\u00f3n Educativa 20565 Mercedes Cabello De Carbonera", "note": "Gps_otras_fuentes (local)", "ref": "0250324", "source": "minedu.gob.pe"}}, {"type": "node", "id": 5595327128, "lat": -11.866, "lon": -76.4312, "tags": {"addr:district": "Surco", "addr:full": "Ayas S/n", "addr:province": "Huarochir\u00ed", "addr:subdistrict": "Ayas", "amenity": "school", "ele": "2410", "fixme": "Ubicar el POI en el lugar que corresponde", "isced:level": "1", "name": "Instituci\u00f3n Educativa 20679 Virgen Purisima", "note": "Gps_otras_fuentes (local)", "ref": "0251454", "source": "minedu.gob.pe"}}, {"type": "node", "id": 5595327129, "lat": -11.8642, "lon": -76.4234, "tags": {"addr:district": "Surco", "addr:full": "Carretera Central Puente Rojo Km 70", "addr:province": "Huarochir\u00ed", "addr:subdistrict": "Eduardo De Habich", "amenity": "school", "ele": "2172", "fixme": "Ubicar el POI en el lugar que corresponde", "isced:level": "1", "name": "Instituci\u00f3n Educativa 20955-1 Eduardo De Habich", "note": "Gps_otras_fuentes (local)", "ref": "0835272", "source": "minedu.gob.pe"}}, {"type": "node", "id": 5595327521, "lat": -11.8832, "lon": -76.4385, "tags": {"addr:district": "Surco", "addr:full": "Jiron Carlos Mera 325", "addr:province": "Huarochir\u00ed", "addr:subdistrict": "San Jeronimo De Surco", "amenity": "school", "ele": "2017", "fixme": "Ubicar el POI en el lugar que corresponde", "isced:level": "1", "name": "Instituci\u00f3n Educativa 20615 San Jeronimo", "note": "Gps_otras_fuentes (local)", "ref": "0250811", "source": "minedu.gob.pe"}}, {"type": "node", "id": 5595327727, "lat": -11.8816794, "lon": -76.4677199, "tags": {"addr:district": "Surco", "addr:full": "Carretera Songos S/n", "addr:province": "Huarochir\u00ed", "addr:subdistrict": "Songos", "amenity": "school", "ele": "1817", "fixme": "Ubicar el POI en el lugar que corresponde", "isced:level": "1", "name": "Instituci\u00f3n Educativa 20955-3 Se\u00f1or De Los Milagros", "note": "Gps_otras_fuentes (local)", "ref": "0820597", "source": "minedu.gob.pe"}}, {"type": "node", "id": 5595327731, "lat": -11.9724131, "lon": -76.4111, "tags": {"addr:district": "San Andr\u00e9s de Tupicocha", "addr:full": "Characuayque", "addr:province": "Huarochir\u00ed", "addr:subdistrict": "San Miguel De Characuayqui", "amenity": "school", "ele": "3865", "fixme": "Ubicar el POI en el lugar que corresponde", "isced:level": "1", "name": "Instituci\u00f3n Educativa 20955-11 Santa Felicita", "note": "Med_gps (local)", "ref": "0904946", "source": "minedu.gob.pe"}}, {"type": "node", "id": 5595327732, "lat": -11.981, "lon": -76.4162, "tags": {"addr:district": "San Andr\u00e9s de Tupicocha", "addr:full": "Jiron Progreso S/n", "addr:province": "Huarochir\u00ed", "addr:subdistrict": "Chinchagoza", "amenity": "school", "ele": "3898", "fixme": "Ubicar el POI en el lugar que corresponde", "isced:level": "1", "name": "Instituci\u00f3n Educativa No. 20649", "note": "Med_gps (local)", "ref": "0251157", "source": "minedu.gob.pe"}}, {"type": "node", "id": 5595327733, "lat": -11.9935, "lon": -76.4137, "tags": {"addr:district": "San Andr\u00e9s de Tupicocha", "addr:full": "Parque Champuana", "addr:province": "Huarochir\u00ed", "addr:subdistrict": "Champuana", "amenity": "school", "ele": "3653", "fixme": "Ubicar el POI en el lugar que corresponde", "isced:level": "1", "name": "Instituci\u00f3n Educativa No. 20863", "note": "Med_gps (local)", "ref": "0515783", "source": "minedu.gob.pe"}}, {"type": "node", "id": 5595327746, "lat": -12.0174046, "lon": -76.3914887, "tags": {"addr:city": "San Dami\u00e1n de Checa", "addr:district": "San Damian", "addr:full": "Jiron Lima S/n", "addr:province": "Huarochir\u00ed", "addr:street": "Jir\u00f3n Lima", "addr:subdistrict": "San Damian", "amenity": "school", "denomination": "catholic", "ele": "3230", "isced:level": "1", "name": "Instituci\u00f3n Educativa No. 20584", "note": "Gps_otras_fuentes (local)", "ref": "0250514", "religion": "christian", "source": "minedu.gob.pe"}}, {"type": "node", "id": 5595327748, "lat": -12.0161875, "lon": -76.3914993, "tags": {"addr:city": "San Dami\u00e1n de Checa", "addr:district": "San Damian", "addr:full": "Jiron Iquitos S/n", "addr:province": "Huarochir\u00ed", "addr:street": "Jir\u00f3n Iquitos", "addr:subdistrict": "San Damian", "amenity": "school", "denomination": "catholic", "ele": "3230", "isced:level": "2", "name": "Instituci\u00f3n Educativa Victor Andres Belaunde", "note": "Gps_otras_fuentes (local)", "ref": "0286518", "religion": "christian", "source": "minedu.gob.pe"}}, {"type": "node", "id": 5595327758, "lat": -12.0497079, "lon": -76.3722, "tags": {"addr:district": "San Damian", "addr:full": "Jiron Charcocha S/n", "addr:province": "Huarochir\u00ed", "addr:subdistrict": "Sunicancha", "amenity": "school", "ele": "3483", "isced:level": "1;2", "name": "Instituci\u00f3n Educativa 20586 San Francisco De Asis", "note": "Gps_otras_fuentes (local)", "ref": "0250530;0905067", "source": "minedu.gob.pe"}}, {"type": "node", "id": 5595327768, "lat": -12.0225, "lon": -76.4366, "tags": {"addr:district": "San Andr\u00e9s de Tupicocha", "addr:full": "Calle Cullpe S/n", "addr:province": "Huarochir\u00ed", "addr:subdistrict": "Cullpe", "amenity": "school", "ele": "3523", "fixme": "Ubicar el POI en el lugar que corresponde", "isced:level": "1", "name": "Instituci\u00f3n Educativa No. 20648", "note": "Gps_otras_fuentes (local)", "ref": "0251140", "source": "minedu.gob.pe"}}, {"type": "node", "id": 5595328252, "lat": -11.9922, "lon": -76.398, "tags": {"addr:district": "San Damian", "addr:full": "Quilquichaca", "addr:province": "Huarochir\u00ed", "addr:subdistrict": "Quilquichaca", "amenity": "school", "ele": "2988", "fixme": "Ubicar el POI en el lugar que corresponde", "isced:level": "1", "name": "Instituci\u00f3n Educativa 20908 Santisimo Sagrado Corazon De Jesus", "note": "Gps_otras_fuentes (local)", "ref": "0599951", "source": "minedu.gob.pe"}}, {"type": "node", "id": 5595328463, "lat": -12.000895, "lon": -76.4722176, "tags": {"addr:district": "San Andr\u00e9s de Tupicocha", "addr:full": "Jiron Progreso S/n", "addr:province": "Huarochir\u00ed", "addr:subdistrict": "Tupicocha", "amenity": "school", "ele": "3302", "isced:level": "1;2", "name": "Instituci\u00f3n Educativa 20578 Cesar A. Vallejo", "ref": "0250456;0584177", "source": "minedu.gob.pe"}}, {"type": "node", "id": 5595329251, "lat": -11.9851818, "lon": -76.5267253, "tags": {"addr:district": "Santiago de Tuna", "addr:full": "Avenida Santiago Apostol S/n", "addr:province": "Huarochir\u00ed", "addr:subdistrict": "Santiago de Tuna", "amenity": "school", "ele": "2906", "isced:level": "2", "name": "Instituci\u00f3n Educativa Cped - 20610 Gervasio Clemente Valencia", "note": "Gps_otras_fuentes (local)", "ref": "1379676", "source": "minedu.gob.pe"}}, {"type": "node", "id": 5595329252, "lat": -11.9851131, "lon": -76.5265978, "tags": {"addr:district": "Santiago de Tuna", "addr:full": "Avenida Santiago Apostol S/n", "addr:province": "Huarochir\u00ed", "addr:subdistrict": "Santiago de Tuna", "amenity": "school", "ele": "2906", "isced:level": "1", "name": "Instituci\u00f3n Educativa 20610 Gervasio Clemente Valencia", "note": "Gps_otras_fuentes (local)", "ref": "0250761", "source": "minedu.gob.pe"}}, {"type": "node", "id": 5595329315, "lat": -11.9478, "lon": -76.4717, "tags": {"addr:district": "San Andr\u00e9s de Tupicocha", "addr:full": "Calle San Pedro De Llancha S/n", "addr:province": "Huarochir\u00ed", "addr:subdistrict": "Llancha", "amenity": "school", "ele": "3521", "fixme": "Ubicar el POI en el lugar que corresponde", "isced:level": "1", "name": "Instituci\u00f3n Educativa No. 20789", "note": "Med_gps (local)", "ref": "0247403", "source": "minedu.gob.pe"}}, {"type": "node", "id": 5595330024, "lat": -11.943, "lon": -76.5086, "tags": {"addr:district": "San Bartolome", "addr:full": "Avenida Grau S/n", "addr:province": "Huarochir\u00ed", "addr:subdistrict": "La Merced De Chaute", "amenity": "school", "ele": "2493", "fixme": "Ubicar el POI en el lugar que corresponde", "isced:level": "1", "name": "Instituci\u00f3n Educativa 20580 Juan Max Villar Torres", "note": "Gps_otras_fuentes (local)", "ref": "0250472", "source": "minedu.gob.pe"}}, {"type": "node", "id": 5595330369, "lat": -11.911926, "lon": -76.538927, "tags": {"addr:district": "Santa Cruz de Cocachacra", "addr:full": "Avenida Tupac Amaru 109", "addr:province": "Huarochir\u00ed", "addr:subdistrict": "Cocachacra", "amenity": "school", "ele": "1427", "isced:level": "1;2", "name": "Instituci\u00f3n Educativa 20602 Jose Maria Arguedas", "ref": "0250688;0584052", "source": "minedu.gob.pe"}}, {"type": "node", "id": 5595330457, "lat": -11.9126352, "lon": -76.5287922, "tags": {"addr:district": "San Bartolome", "addr:full": "Jiron Santa Rosa 101", "addr:province": "Huarochir\u00ed", "addr:subdistrict": "San Bartolome", "amenity": "school", "ele": "1615", "isced:level": "1;2", "name": "Instituci\u00f3n Educativa 20581 San Bartolome", "note": "Gps_otras_fuentes (local)", "ref": "0250480;0523316", "source": "minedu.gob.pe"}}, {"type": "node", "id": 5595331474, "lat": -11.9061, "lon": -76.5229, "tags": {"addr:district": "San Bartolome", "addr:full": "Calle Urubamba S/n", "addr:province": "Huarochir\u00ed", "addr:subdistrict": "Tornamesa", "amenity": "school", "ele": "1501", "fixme": "Ubicar el POI en el lugar que corresponde", "isced:level": "1", "name": "Instituci\u00f3n Educativa 20583 Daniel Alcides Carrion", "note": "Gps_otras_fuentes (local)", "ref": "0250506", "source": "minedu.gob.pe"}}, {"type": "node", "id": 5595331947, "lat": -11.8722, "lon": -76.5181, "tags": {"addr:district": "San Mateo de Otao", "addr:full": "Santa Cruz De Ucro", "addr:province": "Huarochir\u00ed", "addr:subdistrict": "Santa Cruz De Ucros", "amenity": "school", "ele": "2332", "fixme": "Ubicar el POI en el lugar que corresponde", "isced:level": "1", "name": "Instituci\u00f3n Educativa 20669 Jose Abelardo Qui\u00f1ones", "note": "Med_gps (local)", "ref": "0251355", "source": "minedu.gob.pe"}}, {"type": "node", "id": 5595332800, "lat": -11.8697849, "lon": -76.5440987, "tags": {"addr:district": "San Mateo de Otao", "addr:full": "San Juan De Lanca", "addr:province": "Huarochir\u00ed", "addr:subdistrict": "San Juan De Lanca", "amenity": "school", "ele": "2065", "isced:level": "1;2", "name": "Instituci\u00f3n Educativa 20599 Jorge Basadre", "note": "Med_gps (local)", "ref": "0250654;0584029", "source": "minedu.gob.pe"}}, {"type": "node", "id": 5595332802, "lat": -11.8842904, "lon": -76.5389098, "tags": {"addr:district": "San Mateo de Otao", "addr:full": "Carretera Tapicara S/n", "addr:province": "Huarochir\u00ed", "addr:subdistrict": "Taricara", "amenity": "school", "ele": "1929", "fixme": "Ubicar el POI en el lugar que corresponde", "isced:level": "1", "name": "Instituci\u00f3n Educativa 20668 Maria Auxiliadora", "note": "Med_gps (local)", "ref": "0251348", "source": "minedu.gob.pe"}}, {"type": "node", "id": 5595333307, "lat": -11.8631, "lon": -76.5368, "tags": {"addr:district": "San Mateo de Otao", "addr:full": "Carretera Salpin Km. 16", "addr:province": "Huarochir\u00ed", "addr:subdistrict": "Saldin / Salpin", "amenity": "school", "ele": "2264", "fixme": "Ubicar el POI en el lugar que corresponde", "isced:level": "1", "name": "Instituci\u00f3n Educativa 20841 Arquitecto Fernando Belaunde Terry", "note": "Med_gps (local)", "ref": "0247841", "source": "minedu.gob.pe"}}, {"type": "node", "id": 5595333308, "lat": -11.8619856, "lon": -76.537398, "tags": {"addr:district": "San Mateo de Otao", "addr:full": "Carretera Salpin S/n", "addr:province": "Huarochir\u00ed", "addr:subdistrict": "Saldin / Salpin", "amenity": "school", "ele": "2264", "isced:level": "1;2", "name": "Instituci\u00f3n Educativa 21590-2 Elena Garmon De White", "note": "Med_gps (local)", "ref": "0824060;1115591", "source": "minedu.gob.pe"}}, {"type": "node", "id": 5595333895, "lat": -11.8445554, "lon": -76.5316186, "tags": {"addr:district": "San Mateo de Otao", "addr:full": "Jiron Washington 15", "addr:province": "Huarochir\u00ed", "addr:subdistrict": "Chanchacalla", "amenity": "school", "ele": "2513", "fixme": "Ubicar el POI en el lugar que corresponde", "isced:level": "1", "name": "Instituci\u00f3n Educativa 20597 Jose Silverio Olaya Balandra", "note": "Med_gps (local)", "ref": "0250639", "source": "minedu.gob.pe"}}, {"type": "node", "id": 5595334306, "lat": -11.8939, "lon": -76.5529, "tags": {"addr:district": "San Mateo de Otao", "addr:full": "Avenida Cumbe S/n", "addr:province": "Huarochir\u00ed", "addr:subdistrict": "Cumbe", "amenity": "school", "ele": "1643", "fixme": "Ubicar el POI en el lugar que corresponde", "isced:level": "1", "name": "Instituci\u00f3n Educativa 20666 Ann Jarvis", "note": "Med_gps (local)", "ref": "0251322", "source": "minedu.gob.pe"}}, {"type": "node", "id": 5595334826, "lat": -12.105868, "lon": -76.4600065, "tags": {"addr:district": "Cuenca", "addr:full": "Avenida Isidro De La Cruz S/n", "addr:province": "Huarochir\u00ed", "addr:subdistrict": "San Martin De Orcocoto", "amenity": "school", "ele": "1869", "isced:level": "1", "name": "Instituci\u00f3n Educativa No. 20630", "note": "Gps_otras_fuentes (local)", "ref": "0250969", "source": "minedu.gob.pe"}}, {"type": "node", "id": 5595336716, "lat": -12.0917304, "lon": -76.5075053, "tags": {"addr:city": "Santiago de Cochahuayco", "addr:district": "Antioquia", "addr:full": "Parque Principal S/n", "addr:province": "Huarochir\u00ed", "addr:subdistrict": "Cochahuayco", "amenity": "school", "ele": "1619", "fixme": "Ubicar el POI en el lugar que corresponde", "isced:level": "1", "name": "Instituci\u00f3n Educativa No. 20538", "note": "Med_gps (local)", "ref": "0250050", "source": "minedu.gob.pe"}}, {"type": "node", "id": 5595336717, "lat": -12.0969, "lon": -76.4934, "tags": {"addr:district": "Antioquia", "addr:full": "Calle Villa Pampilla", "addr:province": "Huarochir\u00ed", "addr:subdistrict": "La Pampilla", "amenity": "school", "ele": "1659", "fixme": "Ubicar el POI en el lugar que corresponde", "isced:level": "1", "name": "Instituci\u00f3n Educativa No. 20620", "note": "Gps_otras_fuentes (local)", "ref": "0250860", "source": "minedu.gob.pe"}}, {"type": "node", "id": 5595336988, "lat": -12.0963529, "lon": -76.4466115, "tags": {"addr:district": "Lahuaytambo", "addr:full": "La Pedrera", "addr:province": "Huarochir\u00ed", "addr:subdistrict": "La Pedrera", "amenity": "school", "ele": "1964", "isced:level": "1", "name": "Instituci\u00f3n Educativa No. 20836", "note": "Gps_otras_fuentes (local)", "ref": "0470104", "source": "minedu.gob.pe"}}, {"type": "node", "id": 5595336989, "lat": -12.0984, "lon": -76.452, "tags": {"addr:district": "Lahuaytambo", "addr:full": "Huatiacaya", "addr:province": "Huarochir\u00ed", "addr:subdistrict": "Huatiacaya", "amenity": "school", "ele": "1874", "fixme": "Ubicar el POI en el lugar que corresponde", "isced:level": "1", "name": "Instituci\u00f3n Educativa No. 20835", "note": "Gps_otras_fuentes (local)", "ref": "0247882", "source": "minedu.gob.pe"}}, {"type": "node", "id": 5595339470, "lat": -12.1008, "lon": -76.3886, "tags": {"addr:district": "Lahuaytambo", "addr:full": "Punco", "addr:province": "Huarochir\u00ed", "addr:subdistrict": "Lahuaytambo", "amenity": "school", "ele": "3346", "isced:level": "1;2", "name": "Instituci\u00f3n Educativa 20556 Francisco Inka", "note": "Ubicacion_web (local)", "ref": "0250233;0516484", "source": "minedu.gob.pe"}}, {"type": "node", "id": 5819332053, "lat": -11.7739603, "lon": -76.3064804, "tags": {"amenity": "restaurant", "cuisine": "steak_house;fish;pasta;peruvian;chicken", "diet:vegetarian": "yes", "name": "Sol de Oro"}}, {"type": "node", "id": 5967563673, "lat": -12.0842299, "lon": -76.384444}, {"type": "node", "id": 5967563674, "lat": -12.0842004, "lon": -76.3842405}, {"type": "node", "id": 5967563675, "lat": -12.0841693, "lon": -76.3841326}, {"type": "node", "id": 5967563676, "lat": -12.0845967, "lon": -76.3841131}, {"type": "node", "id": 5967563677, "lat": -12.0846227, "lon": -76.3844175}, {"type": "node", "id": 6038311358, "lat": -12.0790871, "lon": -76.5065511}, {"type": "node", "id": 6038311359, "lat": -12.0796533, "lon": -76.5063838}, {"type": "node", "id": 6038311360, "lat": -12.0795236, "lon": -76.5059184}, {"type": "node", "id": 6038311361, "lat": -12.0789482, "lon": -76.5060845}, {"type": "node", "id": 6768056654, "lat": -12.0805344, "lon": -76.5094633, "tags": {"amenity": "restaurant", "cuisine": "regional", "name": "Zenaida"}}, {"type": "node", "id": 6768056655, "lat": -12.0805673, "lon": -76.5094544, "tags": {"amenity": "restaurant", "name": "Las Cholitas"}}, {"type": "node", "id": 6768060000, "lat": -12.0810865, "lon": -76.5093056, "tags": {"amenity": "restaurant", "name": "San Juanito"}}, {"type": "node", "id": 6768281725, "lat": -12.0908393, "lon": -76.5053537, "tags": {"addr:city": "Santiago de Cochahuayco", "amenity": "school", "denomination": "catholic", "name": "Instituci\u00f3n Educativa 20538 Cochahuayco", "religion": "christian"}}, {"type": "node", "id": 6768371511, "lat": -12.0956766, "lon": -76.4930133, "tags": {"amenity": "restaurant"}}, {"type": "node", "id": 6768371516, "lat": -12.0959484, "lon": -76.492046, "tags": {"amenity": "restaurant", "name": "Restaurant Nataly"}}, {"type": "node", "id": 6768396665, "lat": -12.1029106, "lon": -76.4604759, "tags": {"amenity": "school", "denomination": "catholic", "name": "Instituci\u00f3n educativa 20555 Cruz de Laya", "religion": "christian"}}, {"type": "node", "id": 6769773460, "lat": -12.1010109, "lon": -76.387975}, {"type": "node", "id": 6769773461, "lat": -12.1007118, "lon": -76.3881875}, {"type": "node", "id": 6769773462, "lat": -12.1005725, "lon": -76.3882458}, {"type": "node", "id": 6769773463, "lat": -12.1005451, "lon": -76.3892989}, {"type": "node", "id": 6769773464, "lat": -12.1007757, "lon": -76.3891915}, {"type": "node", "id": 6769773465, "lat": -12.100988, "lon": -76.3890117}, {"type": "node", "id": 6769773466, "lat": -12.1010474, "lon": -76.3890467}, {"type": "node", "id": 6769773467, "lat": -12.1011501, "lon": -76.3890351}, {"type": "node", "id": 6769773468, "lat": -12.1013807, "lon": -76.3892709}, {"type": "node", "id": 6769773469, "lat": -12.1015474, "lon": -76.3891868}, {"type": "node", "id": 6769773470, "lat": -12.1017095, "lon": -76.3890794}, {"type": "node", "id": 6769773471, "lat": -12.1018465, "lon": -76.38893}, {"type": "node", "id": 6769773472, "lat": -12.1018944, "lon": -76.3887642}, {"type": "node", "id": 6769773473, "lat": -12.1012643, "lon": -76.3882995}, {"type": "node", "id": 6769773474, "lat": -12.101052, "lon": -76.387982}, {"type": "node", "id": 6769831019, "lat": -12.0966491, "lon": -76.3891215, "tags": {"amenity": "restaurant"}}, {"type": "node", "id": 6769831020, "lat": -12.096483, "lon": -76.3891498, "tags": {"addr:city": "San Juan de Lahuaytambo", "amenity": "school", "name": "I.E. 20556 Francisco Inka"}}, {"type": "node", "id": 7073231209, "lat": -11.8699067, "lon": -76.5446867, "tags": {"amenity": "clinic", "name": "Lanca", "operator": "Gobierno Regional", "phone": "+511 3539672", "ref:category": "I-3", "ref:microred": "3", "ref:red": "9"}}, {"type": "node", "id": 7080122525, "lat": -11.9093733, "lon": -76.5405283, "tags": {"addr:street": "Avenida Rosa Davila", "amenity": "clinic", "name": "Cocachacra", "operator": "Gobierno Regional", "phone": "+511 3539672", "ref:category": "I-3", "ref:microred": "3", "ref:red": "9"}}, {"type": "node", "id": 7082510274, "lat": -11.8848965, "lon": -76.440288, "tags": {"addr:street": "Jir\u00f3n Alfonso Ugarte Y Sanchez Cerro", "amenity": "clinic", "name": "San Geronimo de Surco", "operator": "Gobierno Regional", "phone": "+511 3559719", "ref:category": "I-3", "ref:microred": "4", "ref:red": "9"}}, {"type": "node", "id": 7290166664, "lat": -11.9849513, "lon": -76.5266541}, {"type": "node", "id": 7290166665, "lat": -11.9848842, "lon": -76.5262889}, {"type": "node", "id": 7290166669, "lat": -11.9857733, "lon": -76.5259693}, {"type": "node", "id": 7290166670, "lat": -11.9858776, "lon": -76.5263092}, {"type": "node", "id": 7290166671, "lat": -11.9858408, "lon": -76.526566}, {"type": "node", "id": 7290166672, "lat": -11.9857976, "lon": -76.5266724}, {"type": "node", "id": 7290166673, "lat": -11.9855384, "lon": -76.5269587}, {"type": "node", "id": 7290166674, "lat": -11.9851221, "lon": -76.5270897}, {"type": "node", "id": 7290166675, "lat": -11.9850242, "lon": -76.5266337}, {"type": "node", "id": 7290404218, "lat": -12.0018178, "lon": -76.4720587}, {"type": "node", "id": 7290404219, "lat": -12.0017942, "lon": -76.4716148}, {"type": "node", "id": 7290404220, "lat": -12.001663, "lon": -76.4715786}, {"type": "node", "id": 7290404221, "lat": -12.0014872, "lon": -76.4715585}, {"type": "node", "id": 7290404222, "lat": -12.0013285, "lon": -76.4715652}, {"type": "node", "id": 7290404223, "lat": -12.001133, "lon": -76.4715947}, {"type": "node", "id": 7290404224, "lat": -12.0010766, "lon": -76.4716175}, {"type": "node", "id": 7290404225, "lat": -12.0010412, "lon": -76.4716671}, {"type": "node", "id": 7290404226, "lat": -12.0006351, "lon": -76.4719625}, {"type": "node", "id": 7290404227, "lat": -12.0006307, "lon": -76.4720324}, {"type": "node", "id": 7290404228, "lat": -12.001346, "lon": -76.4727917}, {"type": "node", "id": 7290404229, "lat": -12.0013834, "lon": -76.4727696}, {"type": "node", "id": 7290404230, "lat": -12.0014995, "lon": -76.4725275}, {"type": "node", "id": 7290404231, "lat": -12.0016293, "lon": -76.4722901}, {"type": "node", "id": 7292072023, "lat": -12.0158581, "lon": -76.3912948}, {"type": "node", "id": 7292072024, "lat": -12.0161108, "lon": -76.3911824}, {"type": "node", "id": 7292072025, "lat": -12.0161341, "lon": -76.3911948}, {"type": "node", "id": 7292072026, "lat": -12.0162484, "lon": -76.3915558}, {"type": "node", "id": 7292072027, "lat": -12.0162691, "lon": -76.3915726}, {"type": "node", "id": 7292072028, "lat": -12.0164439, "lon": -76.3920894}, {"type": "node", "id": 7292072029, "lat": -12.0163704, "lon": -76.3921159}, {"type": "node", "id": 7292072030, "lat": -12.0162639, "lon": -76.3921106}, {"type": "node", "id": 7292072031, "lat": -12.0162233, "lon": -76.392092}, {"type": "node", "id": 7292072032, "lat": -12.016058, "lon": -76.391946}, {"type": "node", "id": 7292072033, "lat": -12.0160216, "lon": -76.3918867}, {"type": "node", "id": 7292072034, "lat": -12.0159143, "lon": -76.3915735}, {"type": "node", "id": 7292072035, "lat": -12.0158356, "lon": -76.3913276}, {"type": "node", "id": 7293110777, "lat": -12.0497607, "lon": -76.3718724}, {"type": "node", "id": 7293110778, "lat": -12.0494408, "lon": -76.3721409}, {"type": "node", "id": 7293110779, "lat": -12.0497501, "lon": -76.3724927}, {"type": "node", "id": 7293110780, "lat": -12.0501305, "lon": -76.3722211}, {"type": "node", "id": 7403672001, "lat": -11.8697879, "lon": -76.5445542}, {"type": "node", "id": 7403672002, "lat": -11.8700347, "lon": -76.5444772}, {"type": "node", "id": 7403672003, "lat": -11.869941, "lon": -76.54373}, {"type": "node", "id": 7403672004, "lat": -11.8698519, "lon": -76.5436926}, {"type": "node", "id": 7403672005, "lat": -11.8697765, "lon": -76.5436436}, {"type": "node", "id": 7403672006, "lat": -11.8697034, "lon": -76.5435782}, {"type": "node", "id": 7403672007, "lat": -11.8696668, "lon": -76.5437019}, {"type": "node", "id": 7403672008, "lat": -11.8696326, "lon": -76.5438257}, {"type": "node", "id": 7403672011, "lat": -11.8699587, "lon": -76.5445009}, {"type": "node", "id": 7403672012, "lat": -11.8698232, "lon": -76.5445432}, {"type": "node", "id": 7403672066, "lat": -11.8700275, "lon": -76.5444794}, {"type": "node", "id": 7403672095, "lat": -11.869682, "lon": -76.5436507}, {"type": "node", "id": 7403672098, "lat": -11.8699791, "lon": -76.5440337}, {"type": "way", "id": 236003624, "nodes": [2440777697, 2440777692, 2440777673, 2440777680, 2440777688, 2440777694, 2440777697], "tags": {"amenity": "school"}}, {"type": "way", "id": 508501357, "nodes": [4978018354, 4978018355, 4978018356, 4978018357, 4978018358, 4978018354], "tags": {"amenity": "school", "name": "I.E. Julio C\u00e9sar Tello"}}, {"type": "way", "id": 518600615, "nodes": [5058482682, 5058482683, 5058482684, 5058482685, 5058482682], "tags": {"amenity": "police", "building": "yes", "name": "Comisar\u00eda de San Jer\u00f3nimo de Surco"}}, {"type": "way", "id": 631984724, "nodes": [5967563673, 5967563674, 5967563675, 5967563676, 5967563677, 5967563673], "tags": {"amenity": "school", "name": "I.E. 20638 Santa Ana"}}, {"type": "way", "id": 641089576, "nodes": [6038311358, 6038311359, 6038311360, 6038311361, 6038311358], "tags": {"addr:city": "Antioqu\u00eda", "addr:street": "Avenida Santa Risa", "amenity": "school", "denomination": "catholic", "description": "Escuela nivel primaria y secundaria.", "name": "Instituci\u00f3n Educativa 20537 Andres Avelino Caceres", "religion": "christian"}}, {"type": "way", "id": 721662661, "nodes": [6769773460, 6769773461, 6769773462, 6769773463, 6769773464, 6769773465, 6769773466, 6769773467, 6769773468, 6769773469, 6769773470, 6769773471, 6769773472, 6769773473, 6769773474, 6769773460], "tags": {"amenity": "school", "name": "Instituci\u00f3n Educativa 20556 Francisco Inka"}}, {"type": "way", "id": 780735362, "nodes": [7290166664, 7290166665, 7290166669, 7290166670, 7290166671, 7290166672, 7290166673, 7290166674, 7290166675, 7290166664], "tags": {"addr:city": "Santiago de Tuna", "addr:street": "Avenida Apostol Santiago", "amenity": "school", "denomination": "catholic", "name": "Instituci\u00f3n Educativa 20610 Gervasio Clemente Valencia", "religion": "christian"}}, {"type": "way", "id": 780758437, "nodes": [7290404218, 7290404219, 7290404220, 7290404221, 7290404222, 7290404223, 7290404224, 7290404225, 7290404226, 7290404227, 7290404228, 7290404229, 7290404230, 7290404231, 7290404218], "tags": {"addr:city": "San Andr\u00e9s de Tupicocha", "addr:street": "Jir\u00f3n Ricardo Bent\u00edn", "amenity": "school", "denomination": "catholic", "name": "Instituci\u00f3n Educativa 20578 Cesar A. Vallejo", "religion": "christian"}}, {"type": "way", "id": 780973434, "nodes": [7292072023, 7292072024, 7292072025, 7292072026, 7292072027, 7292072028, 7292072029, 7292072030, 7292072031, 7292072032, 7292072033, 7292072034, 7292072035, 7292072023], "tags": {"addr:city": "San Dami\u00e1n de Checa", "addr:street": "Jir\u00f3n Iquitos", "amenity": "school", "denomination": "catholic", "name": "Instituci\u00f3n Educativa Victor Andres Belaunde", "religion": "christian"}}, {"type": "way", "id": 781111187, "nodes": [7293110777, 7293110778, 7293110779, 7293110780, 7293110777], "tags": {"addr:city": "San Francisco de Sunicancha", "addr:street": "Jir\u00f3n Charcocha", "amenity": "school", "name": "Instituci\u00f3n Educativa 20586 San Francisco De Asis"}}, {"type": "way", "id": 791953803, "nodes": [7403672001, 7403672012, 7403672011, 7403672066, 7403672002, 7403672098, 7403672003, 7403672004, 7403672005, 7403672006, 7403672095, 7403672007, 7403672008, 7403672001], "tags": {"amenity": "school", "name": "I.E 20599 Jorge Basadre"}}]}