{"version": 0.6, "generator": "Overpass API 0.7.56.9 76e5016d", "osm3s": {"timestamp_osm_base": "2021-08-10T01:45:34Z", "copyright": "The data included in this document is from www.openstreetmap.org. The data is made available under ODbL."}, "elements": [{"type": "node", "id": 4612363032, "lat": -12.8050866, "lon": -76.5627597, "tags": {"amenity": "restaurant", "name": "El Tambo"}}, {"type": "node", "id": 4612364523, "lat": -12.8045618, "lon": -76.5637182}, {"type": "node", "id": 4612364526, "lat": -12.8048575, "lon": -76.5640869}, {"type": "node", "id": 4612364535, "lat": -12.8052301, "lon": -76.5628365, "tags": {"amenity": "parking"}}, {"type": "node", "id": 4612364542, "lat": -12.8076387, "lon": -76.5615828, "tags": {"amenity": "fast_food"}}, {"type": "node", "id": 4612364543, "lat": -12.8076706, "lon": -76.5606729, "tags": {"amenity": "fast_food"}}, {"type": "node", "id": 4612364544, "lat": -12.807949, "lon": -76.5613182, "tags": {"amenity": "fast_food"}}, {"type": "node", "id": 4612364545, "lat": -12.8082273, "lon": -76.5610892, "tags": {"amenity": "fast_food"}}, {"type": "node", "id": 4612364546, "lat": -12.8083634, "lon": -76.5604948}, {"type": "node", "id": 4612364547, "lat": -12.8084506, "lon": -76.5609019, "tags": {"amenity": "fast_food"}}, {"type": "node", "id": 4612364548, "lat": -12.8084985, "lon": -76.5604351}, {"type": "node", "id": 4612364549, "lat": -12.8086791, "lon": -76.5609112}, {"type": "node", "id": 4612364551, "lat": -12.8087751, "lon": -76.5607802}, {"type": "node", "id": 4612364552, "lat": -12.8088956, "lon": -76.5601003}, {"type": "node", "id": 4612364555, "lat": -12.8091722, "lon": -76.5604453}, {"type": "node", "id": 4965156091, "lat": -12.778755, "lon": -76.5555546}, {"type": "node", "id": 4965156092, "lat": -12.7792142, "lon": -76.5553303}, {"type": "node", "id": 4965156093, "lat": -12.7795423, "lon": -76.5560366}, {"type": "node", "id": 4965156094, "lat": -12.7790831, "lon": -76.5562609}, {"type": "node", "id": 4965156095, "lat": -12.7794778, "lon": -76.556592}, {"type": "node", "id": 4965156096, "lat": -12.7795159, "lon": -76.556576}, {"type": "node", "id": 4965156097, "lat": -12.7795318, "lon": -76.5566158}, {"type": "node", "id": 4965156098, "lat": -12.7794937, "lon": -76.5566318}, {"type": "node", "id": 4965156151, "lat": -12.7791258, "lon": -76.5567136}, {"type": "node", "id": 4965156152, "lat": -12.7789424, "lon": -76.5568104}, {"type": "node", "id": 4965156153, "lat": -12.7790225, "lon": -76.5569699}, {"type": "node", "id": 4965156154, "lat": -12.7792059, "lon": -76.5568732}, {"type": "node", "id": 4965156155, "lat": -12.7786856, "lon": -76.5563202}, {"type": "node", "id": 4965156156, "lat": -12.7785567, "lon": -76.5560332}, {"type": "node", "id": 4965156157, "lat": -12.7786463, "lon": -76.5559909}, {"type": "node", "id": 4965156158, "lat": -12.7787752, "lon": -76.5562779}, {"type": "node", "id": 4965156159, "lat": -12.779918, "lon": -76.556484}, {"type": "node", "id": 4965156160, "lat": -12.7799592, "lon": -76.556465}, {"type": "node", "id": 4965156161, "lat": -12.7799679, "lon": -76.5564847}, {"type": "node", "id": 4965156162, "lat": -12.7801865, "lon": -76.5563837}, {"type": "node", "id": 4965156163, "lat": -12.7802203, "lon": -76.5564607}, {"type": "node", "id": 4965156164, "lat": -12.7799605, "lon": -76.5565807}, {"type": "node", "id": 4965156165, "lat": -12.7794353, "lon": -76.5555432}, {"type": "node", "id": 4965156166, "lat": -12.7800239, "lon": -76.5552476}, {"type": "node", "id": 4965156167, "lat": -12.7802389, "lon": -76.555749}, {"type": "node", "id": 4965156168, "lat": -12.7802287, "lon": -76.5557664}, {"type": "node", "id": 4965156169, "lat": -12.7796764, "lon": -76.5560404}, {"type": "node", "id": 4965156170, "lat": -12.7796459, "lon": -76.5560317}, {"type": "node", "id": 4965156176, "lat": -12.7804344, "lon": -76.5558085}, {"type": "node", "id": 4965156177, "lat": -12.7808675, "lon": -76.5555924}, {"type": "node", "id": 4965156178, "lat": -12.7811054, "lon": -76.5561685}, {"type": "node", "id": 4965156179, "lat": -12.7806958, "lon": -76.5563605}, {"type": "node", "id": 4965156180, "lat": -12.7806191, "lon": -76.5561938}, {"type": "node", "id": 4965156181, "lat": -12.7806451, "lon": -76.5561018}, {"type": "node", "id": 4965156182, "lat": -12.780628, "lon": -76.5560884}, {"type": "node", "id": 4965156183, "lat": -12.7806083, "lon": -76.5560682}, {"type": "node", "id": 4965156184, "lat": -12.7805965, "lon": -76.5560369}, {"type": "node", "id": 4965156185, "lat": -12.7805926, "lon": -76.5560096}, {"type": "node", "id": 4965156186, "lat": -12.7805985, "lon": -76.5559833}, {"type": "node", "id": 4965156187, "lat": -12.7805108, "lon": -76.5559611}, {"type": "node", "id": 4965176703, "lat": -12.7660332, "lon": -76.5316571}, {"type": "node", "id": 4965176704, "lat": -12.7665425, "lon": -76.5316401}, {"type": "node", "id": 4965176705, "lat": -12.7665515, "lon": -76.5319264}, {"type": "node", "id": 4965176706, "lat": -12.7660423, "lon": -76.5319434}, {"type": "node", "id": 4965176707, "lat": -12.7660588, "lon": -76.5310901}, {"type": "node", "id": 4965176708, "lat": -12.7660566, "lon": -76.530991}, {"type": "node", "id": 4965176709, "lat": -12.766302, "lon": -76.5309852}, {"type": "node", "id": 4965176710, "lat": -12.7663042, "lon": -76.5310843}, {"type": "node", "id": 4965176720, "lat": -12.7654138, "lon": -76.5311156}, {"type": "node", "id": 4965176721, "lat": -12.7654155, "lon": -76.5311241}, {"type": "node", "id": 4965176722, "lat": -12.7654651, "lon": -76.5311184}, {"type": "node", "id": 4965176723, "lat": -12.7654649, "lon": -76.5311097}, {"type": "node", "id": 4965176724, "lat": -12.7654197, "lon": -76.5311316}, {"type": "node", "id": 4965176725, "lat": -12.7654262, "lon": -76.5311373}, {"type": "node", "id": 4965176726, "lat": -12.765434, "lon": -76.5311405}, {"type": "node", "id": 4965176727, "lat": -12.7654425, "lon": -76.531141}, {"type": "node", "id": 4965176728, "lat": -12.7654506, "lon": -76.5311386}, {"type": "node", "id": 4965176729, "lat": -12.7654576, "lon": -76.5311337}, {"type": "node", "id": 4965176730, "lat": -12.7654626, "lon": -76.5311267}, {"type": "node", "id": 4965176731, "lat": -12.7654619, "lon": -76.5311015}, {"type": "node", "id": 4965176732, "lat": -12.7654565, "lon": -76.5310947}, {"type": "node", "id": 4965176733, "lat": -12.7654493, "lon": -76.5310902}, {"type": "node", "id": 4965176734, "lat": -12.765441, "lon": -76.5310883}, {"type": "node", "id": 4965176735, "lat": -12.7654325, "lon": -76.5310893}, {"type": "node", "id": 4965176736, "lat": -12.7654248, "lon": -76.531093}, {"type": "node", "id": 4965176737, "lat": -12.7654187, "lon": -76.5310991}, {"type": "node", "id": 4965176738, "lat": -12.7654149, "lon": -76.5311069}, {"type": "node", "id": 5504030193, "lat": -12.7119577, "lon": -76.4218277}, {"type": "node", "id": 5504030194, "lat": -12.7120517, "lon": -76.4217778}, {"type": "node", "id": 5504030195, "lat": -12.7121443, "lon": -76.4219607}, {"type": "node", "id": 5504030196, "lat": -12.7121592, "lon": -76.4219528}, {"type": "node", "id": 5504030197, "lat": -12.7121801, "lon": -76.4219939}, {"type": "node", "id": 5504030198, "lat": -12.7120539, "lon": -76.422061}, {"type": "node", "id": 5504030199, "lat": -12.7120392, "lon": -76.4220319}, {"type": "node", "id": 5504030200, "lat": -12.7120564, "lon": -76.4220228}, {"type": "node", "id": 5504039800, "lat": -12.6722088, "lon": -76.3683266}, {"type": "node", "id": 5504039801, "lat": -12.6722224, "lon": -76.3683595}, {"type": "node", "id": 5504039802, "lat": -12.672145, "lon": -76.3683932}, {"type": "node", "id": 5504039803, "lat": -12.6721652, "lon": -76.3684419}, {"type": "node", "id": 5504039804, "lat": -12.6722806, "lon": -76.3683917}, {"type": "node", "id": 5504039805, "lat": -12.6722468, "lon": -76.36831}, {"type": "node", "id": 5504048996, "lat": -12.7271893, "lon": -76.4602251}, {"type": "node", "id": 5504048997, "lat": -12.7273255, "lon": -76.4601296}, {"type": "node", "id": 5504048998, "lat": -12.7273916, "lon": -76.4602287}, {"type": "node", "id": 5504048999, "lat": -12.7272554, "lon": -76.4603242}, {"type": "node", "id": 5504049010, "lat": -12.7268473, "lon": -76.4585377}, {"type": "node", "id": 5504049011, "lat": -12.7271374, "lon": -76.4583159}, {"type": "node", "id": 5504049012, "lat": -12.7278181, "lon": -76.4592725}, {"type": "node", "id": 5504049013, "lat": -12.7275311, "lon": -76.4594836}, {"type": "node", "id": 5504064130, "lat": -12.7268414, "lon": -76.4591608}, {"type": "node", "id": 5504064131, "lat": -12.7269325, "lon": -76.4590905}, {"type": "node", "id": 5504064132, "lat": -12.7271227, "lon": -76.4593494}, {"type": "node", "id": 5504064133, "lat": -12.7271538, "lon": -76.4593253}, {"type": "node", "id": 5504064134, "lat": -12.7271825, "lon": -76.4593643}, {"type": "node", "id": 5504064135, "lat": -12.7270544, "lon": -76.4594632}, {"type": "node", "id": 5504064136, "lat": -12.7270361, "lon": -76.4594382}, {"type": "node", "id": 5504064137, "lat": -12.7270055, "lon": -76.4594618}, {"type": "node", "id": 5504064138, "lat": -12.726965, "lon": -76.4594067}, {"type": "node", "id": 5504064139, "lat": -12.7270014, "lon": -76.4593786}, {"type": "node", "id": 5504064244, "lat": -12.7268378, "lon": -76.4613682}, {"type": "node", "id": 5504064245, "lat": -12.7269372, "lon": -76.4612944}, {"type": "node", "id": 5504064246, "lat": -12.7270876, "lon": -76.4615077}, {"type": "node", "id": 5504064247, "lat": -12.7269882, "lon": -76.4615814}, {"type": "node", "id": 5564569983, "lat": -12.5192026, "lon": -76.2917866, "tags": {"addr:district": "Omas", "addr:full": "Avenida Prolongacion Salinas Cossio S/n", "addr:province": "Yauyos", "addr:subdistrict": "Omas", "amenity": "school", "ele": "1545", "isced:level": "2", "name": "Instituci\u00f3n Educativa San Jeronimo", "note": "Med_gps (local)", "ref": "0286583", "source": "minedu.gob.pe"}}, {"type": "node", "id": 5564569984, "lat": -12.5151895, "lon": -76.2893, "tags": {"addr:district": "Omas", "addr:full": "Avenida Salinas Cossio S/n", "addr:province": "Yauyos", "addr:subdistrict": "Omas", "amenity": "kindergarten", "ele": "1545", "isced:level": "0", "name": "Instituci\u00f3n educativa inicial No. 408", "note": "Med_gps (local)", "ref": "0512871", "source": "minedu.gob.pe"}}, {"type": "node", "id": 5564569985, "lat": -12.5169935, "lon": -76.2896027, "tags": {"addr:district": "Omas", "addr:full": "Avenida Salinas Cossio S/n", "addr:province": "Yauyos", "addr:subdistrict": "Omas", "amenity": "school", "ele": "1545", "isced:level": "1", "name": "Instituci\u00f3n Educativa No. 20170", "note": "Med_gps (local)", "ref": "0252155", "source": "minedu.gob.pe"}}, {"type": "node", "id": 5564574644, "lat": -12.5381013, "lon": -76.308604, "tags": {"addr:district": "Omas", "addr:full": "Piedra Jabon", "addr:province": "Yauyos", "addr:subdistrict": "Esquina De Omas", "amenity": "school", "ele": "1370", "isced:level": "1", "name": "Instituci\u00f3n Educativa No. 20950", "note": "Med_gps (local)", "ref": "0725515", "source": "minedu.gob.pe"}}, {"type": "node", "id": 5564575546, "lat": -12.5757039, "lon": -76.3298188, "tags": {"addr:district": "Coayllo", "addr:full": "Carretera Anexo Unchor S/n", "addr:province": "Ca\u00f1ete", "addr:subdistrict": "Unchor", "amenity": "school", "ele": "1094", "isced:level": "1", "name": "Instituci\u00f3n Educativa No. 20944", "note": "Med_gps (local)", "ref": "0685917", "source": "minedu.gob.pe"}}, {"type": "node", "id": 5576816141, "lat": -12.766243, "lon": -76.5318027, "tags": {"addr:district": "Asia", "addr:full": "Calle Jordan Mz E Lote 15", "addr:province": "Ca\u00f1ete", "addr:subdistrict": "Santa Rosa De Asia", "amenity": "kindergarten", "ele": "99", "isced:level": "0", "name": "Instituci\u00f3n educativa inicial Santa Rosita", "note": "Med-gps (cp)", "ref": "1676188", "source": "minedu.gob.pe"}}, {"type": "node", "id": 5576820518, "lat": -12.7944823, "lon": -76.5586221, "tags": {"addr:district": "Asia", "addr:full": "Autopista Panamericana Sur Km 103", "addr:province": "Ca\u00f1ete", "addr:subdistrict": "La Joya", "amenity": "kindergarten", "ele": "26", "isced:level": "0", "name": "Instituci\u00f3n educativa inicial Sor Maria De Jesus Crucificado", "note": "Med_gps (local)", "ref": "1669704", "source": "minedu.gob.pe"}}, {"type": "node", "id": 5576820725, "lat": -12.7944523, "lon": -76.5586275, "tags": {"addr:district": "Asia", "addr:full": "Autopista Panamericana Sur Km 103", "addr:province": "Ca\u00f1ete", "addr:subdistrict": "La Joya", "amenity": "school", "ele": "26", "isced:level": "1;2", "name": "Instituci\u00f3n Educativa Sor Maria De Jesus Crucificado", "note": "Med_gps (local)", "ref": "1517697;1517739", "source": "minedu.gob.pe"}}, {"type": "node", "id": 5577039115, "lat": -12.7270549, "lon": -76.4609107, "tags": {"addr:district": "Coayllo", "addr:full": "Avenida Mariano Ignacio Prado S/n", "addr:province": "Ca\u00f1ete", "addr:subdistrict": "Coayllo", "amenity": "kindergarten", "ele": "278", "isced:level": "0", "name": "Instituci\u00f3n educativa inicial 478 Los Nisperitos", "note": "Gps_otras_fuentes (local)", "ref": "0588780", "source": "minedu.gob.pe"}}, {"type": "node", "id": 5577041128, "lat": -12.7688863, "lon": -76.5039074, "tags": {"addr:district": "Asia", "addr:full": "Anexo Esquina De Asia S/n", "addr:province": "Ca\u00f1ete", "addr:subdistrict": "Esquina De Asia", "amenity": "school", "ele": "139", "isced:level": "1", "name": "Instituci\u00f3n Educativa No. 20202", "note": "Med_gps (local)", "ref": "0252478", "source": "minedu.gob.pe"}}, {"type": "node", "id": 5577041129, "lat": -12.7476078, "lon": -76.493592, "tags": {"addr:district": "Coayllo", "addr:full": "Carretera Anexo San Juan De Quisque S/n", "addr:province": "Ca\u00f1ete", "addr:subdistrict": "San Juan De Quispe", "amenity": "school", "ele": "203", "isced:level": "1", "name": "Instituci\u00f3n Educativa No. 20214", "note": "Med_gps (local)", "ref": "0252593", "source": "minedu.gob.pe"}}, {"type": "node", "id": 5595173292, "lat": -12.5263997, "lon": -76.5433002, "tags": {"addr:district": "Calango", "addr:full": "Jiron Miguel Grau 250", "addr:province": "Ca\u00f1ete", "addr:subdistrict": "Calango", "amenity": "school", "ele": "311", "isced:level": "1;2", "name": "Instituci\u00f3n Educativa 20130 Jesus Rey", "note": "Gps_otras_fuentes (local)", "ref": "0251769;0583880", "source": "minedu.gob.pe"}}, {"type": "node", "id": 5595173293, "lat": -12.5262594, "lon": -76.5434552, "tags": {"addr:district": "Calango", "addr:full": "Jiron Francia S/n", "addr:province": "Ca\u00f1ete", "addr:subdistrict": "Calango", "amenity": "kindergarten", "ele": "311", "isced:level": "0", "name": "Instituci\u00f3n educativa inicial El Shaddai", "note": "Med-gps (cp)", "ref": "1532407", "source": "minedu.gob.pe"}}, {"type": "node", "id": 5595173294, "lat": -12.5263065, "lon": -76.5434485, "tags": {"addr:district": "Calango", "addr:full": "Avenida Prolongacion Granados Mz P Lote 4", "addr:province": "Ca\u00f1ete", "addr:subdistrict": "Calango", "amenity": "school", "ele": "311", "isced:level": "1", "name": "Instituci\u00f3n Educativa Maria Reiche", "note": "Med-gps (cp)", "ref": "1532449", "source": "minedu.gob.pe"}}, {"type": "node", "id": 5595173295, "lat": -12.5273, "lon": -76.5446, "tags": {"addr:district": "Calango", "addr:full": "Calle Real S/n", "addr:province": "Ca\u00f1ete", "addr:subdistrict": "Calango", "amenity": "kindergarten", "ele": "311", "isced:level": "0", "name": "Instituci\u00f3n educativa inicial No. 464", "note": "Gps_otras_fuentes (local)", "ref": "0542282", "source": "minedu.gob.pe"}}, {"type": "node", "id": 5595173297, "lat": -12.5262153, "lon": -76.5434548, "tags": {"addr:district": "Calango", "addr:full": "Jiron Real S/n", "addr:province": "Ca\u00f1ete", "addr:subdistrict": "Calango", "amenity": "kindergarten", "ele": "311", "isced:level": "0", "name": "Instituci\u00f3n educativa inicial El Mundo De Los Ni\u00f1os", "note": "Med-gps (cp)", "ref": "1309202", "source": "minedu.gob.pe"}}, {"type": "node", "id": 5595178049, "lat": -12.5244, "lon": -76.5236, "tags": {"addr:district": "Calango", "addr:full": "Calle Los Incas S/n", "addr:province": "Ca\u00f1ete", "addr:subdistrict": "La Vuelta", "amenity": "school", "ele": "370", "isced:level": "1", "name": "Instituci\u00f3n Educativa No. 20969", "note": "Med_gps (local)", "ref": "1021161", "source": "minedu.gob.pe"}}, {"type": "node", "id": 5827957685, "lat": -12.7790958, "lon": -76.5566781, "tags": {"amenity": "police", "name": "COMISARIA ASIA"}}, {"type": "node", "id": 5827957686, "lat": -12.7792406, "lon": -76.5562544, "tags": {"amenity": "college", "name": "IEN 20123 INMACULADA CONCEPCION"}}, {"type": "node", "id": 5827957687, "lat": -12.7794172, "lon": -76.5570981, "tags": {"amenity": "restaurant", "name": "LA CHITA EROTICA"}}, {"type": "node", "id": 6522348686, "lat": -12.8198611, "lon": -76.5374066, "tags": {"amenity": "fuel", "name": "Salida"}}, {"type": "node", "id": 6858272981, "lat": -12.5263715, "lon": -76.5459681, "tags": {"addr:street": "Jir\u00f3n Real", "amenity": "doctors", "name": "Calango", "operator": "Gobierno Regional", "phone": "+51 01 2845048", "ref:category": "I-2", "ref:microred": "3", "ref:red": "8"}}, {"type": "node", "id": 8019649084, "lat": -12.5263058, "lon": -76.543806}, {"type": "node", "id": 8019660085, "lat": -12.5263102, "lon": -76.5438168}, {"type": "node", "id": 8019660086, "lat": -12.5263732, "lon": -76.5438068}, {"type": "node", "id": 8019660087, "lat": -12.5263742, "lon": -76.5437952}, {"type": "node", "id": 8019660088, "lat": -12.5263178, "lon": -76.5438256}, {"type": "node", "id": 8019660089, "lat": -12.5263279, "lon": -76.5438314}, {"type": "node", "id": 8019660090, "lat": -12.5263392, "lon": -76.5438335}, {"type": "node", "id": 8019660091, "lat": -12.5263505, "lon": -76.5438317}, {"type": "node", "id": 8019660092, "lat": -12.5263607, "lon": -76.5438262}, {"type": "node", "id": 8019660093, "lat": -12.5263685, "lon": -76.5438176}, {"type": "node", "id": 8019660094, "lat": -12.5263715, "lon": -76.5437839}, {"type": "node", "id": 8019660095, "lat": -12.5263653, "lon": -76.5437741}, {"type": "node", "id": 8019660096, "lat": -12.5263564, "lon": -76.5437668}, {"type": "node", "id": 8019660097, "lat": -12.5263457, "lon": -76.5437629}, {"type": "node", "id": 8019660098, "lat": -12.5263343, "lon": -76.5437628}, {"type": "node", "id": 8019660099, "lat": -12.5263235, "lon": -76.5437664}, {"type": "node", "id": 8019660100, "lat": -12.5263144, "lon": -76.5437734}, {"type": "node", "id": 8019660101, "lat": -12.526308, "lon": -76.5437831}, {"type": "node", "id": 8019660102, "lat": -12.526305, "lon": -76.5437943}, {"type": "node", "id": 8285443009, "lat": -12.5164787, "lon": -76.2892614, "tags": {"amenity": "clinic", "name": "Omas", "operator": "Gobierno Regional", "phone": "+51 956856448", "ref": "00006061", "ref:category": "I-2", "ref:microred": "4", "ref:red": "8"}}, {"type": "way", "id": 466440920, "nodes": [4612364548, 4612364551, 4612364555, 4612364552, 4612364548], "tags": {"amenity": "parking", "parking": "surface", "surface": "sand"}}, {"type": "way", "id": 466440924, "nodes": [4612364523, 4612364526, 4612364549, 4612364546, 4612364523], "tags": {"amenity": "parking", "parking": "surface", "surface": "sand"}}, {"type": "way", "id": 506873109, "nodes": [4965156091, 4965156092, 4965156093, 4965156094, 4965156091], "tags": {"addr:city": "Asia", "addr:district": "Asia", "addr:full": "Avenida Los Incas 400", "addr:housenumber": "400", "addr:province": "Ca\u00f1ete", "addr:street": "Avenida Los Incas", "addr:subdistrict": "Capilla De Asia", "amenity": "school", "ele": "47", "isced:level": "1;2", "name": "Instituci\u00f3n Educativa No. 20123", "note": "Med_gps (local)", "ref": "0251694;0583856", "source": "minedu.gob.pe"}}, {"type": "way", "id": 506873110, "nodes": [4965156095, 4965156096, 4965156097, 4965156098, 4965156095], "tags": {"amenity": "shelter", "building": "yes", "shelter_type": "gazebo"}}, {"type": "way", "id": 506873116, "nodes": [4965156151, 4965156152, 4965156153, 4965156154, 4965156151], "tags": {"addr:city": "Asia", "addr:housenumber": "315", "addr:street": "Avenida La Mar", "amenity": "townhall", "building": "yes", "name": "Municipalidad Distrital de Asia", "website": "http://www.muniasia.gob.pe/"}}, {"type": "way", "id": 506873117, "nodes": [4965156155, 4965156156, 4965156157, 4965156158, 4965156155], "tags": {"amenity": "community_centre", "building": "yes", "name": "Comunidad Campesina de Asia"}}, {"type": "way", "id": 506873118, "nodes": [4965156159, 4965156160, 4965156161, 4965156162, 4965156163, 4965156164, 4965156159], "tags": {"amenity": "place_of_worship", "building": "yes", "name": "Iglesia de Capilla de Asia", "religion": "christian"}}, {"type": "way", "id": 506873119, "nodes": [4965156165, 4965156166, 4965156167, 4965156168, 4965156169, 4965156170, 4965156165], "tags": {"addr:district": "Asia", "addr:full": "Avenida Los Incas S/n", "addr:province": "Ca\u00f1ete", "addr:subdistrict": "Capilla De Asia", "amenity": "kindergarten", "ele": "47", "name": "Instituci\u00f3n educativa inicial No. 476", "note": "Gps_otras_fuentes (local)", "ref": "0588756", "source": "minedu.gob.pe"}}, {"type": "way", "id": 506873122, "nodes": [4965156176, 4965156177, 4965156178, 4965156179, 4965156180, 4965156181, 4965156182, 4965156183, 4965156184, 4965156185, 4965156186, 4965156187, 4965156176], "tags": {"addr:city": "Asia", "addr:street": "Avenida Lima", "amenity": "hospital", "name": "Centro de Salud Capilla de Asia", "operator": "Gobierno Regional", "phone": "+51 996504915", "ref:category": "I-3", "ref:microred": "1", "ref:red": "8"}}, {"type": "way", "id": 506875981, "nodes": [4965176703, 4965176704, 4965176705, 4965176706, 4965176703], "tags": {"addr:district": "Asia", "addr:full": "Calle Jordan S/n", "addr:province": "Ca\u00f1ete", "addr:subdistrict": "Santa Rosa De Asia", "amenity": "school", "ele": "99", "isced:level": "1", "name": "Instituci\u00f3n Educativa No. 20203 Santa Rosa de Asia", "note": "Gps_otras_fuentes (local)", "ref": "0252486", "source": "minedu.gob.pe"}}, {"type": "way", "id": 506875982, "nodes": [4965176707, 4965176708, 4965176709, 4965176710, 4965176707], "tags": {"amenity": "place_of_worship", "building": "yes", "denomination": "catholic", "name": "Iglesia de Santa Rosa de Asia", "religion": "christian"}}, {"type": "way", "id": 506875986, "nodes": [4965176731, 4965176732, 4965176733, 4965176734, 4965176735, 4965176736, 4965176737, 4965176738, 4965176720, 4965176721, 4965176724, 4965176725, 4965176726, 4965176727, 4965176728, 4965176729, 4965176730, 4965176722, 4965176723, 4965176731], "tags": {"amenity": "fountain"}}, {"type": "way", "id": 572926061, "nodes": [5504030193, 5504030194, 5504030195, 5504030196, 5504030197, 5504030198, 5504030199, 5504030200, 5504030193], "tags": {"addr:city": "Uquira", "amenity": "place_of_worship", "building": "yes", "denomination": "catholic", "name": "Iglesia Neocolonial de Uquira", "religion": "christian"}}, {"type": "way", "id": 572926958, "nodes": [5504039800, 5504039801, 5504039802, 5504039803, 5504039804, 5504039805, 5504039800], "tags": {"amenity": "place_of_worship", "building": "yes", "denomination": "catholic", "name": "Capilla Santiago de Yesera", "religion": "christian"}}, {"type": "way", "id": 572930146, "nodes": [5504048996, 5504048997, 5504048998, 5504048999, 5504048996], "tags": {"addr:city": "San Pedro de Coayllo", "addr:housenumber": "403", "addr:street": "Avenida Benavides", "amenity": "townhall", "building": "yes", "name": "Municipalidad de Coayllo"}}, {"type": "way", "id": 572930152, "nodes": [5504049010, 5504049011, 5504049012, 5504049013, 5504049010], "tags": {"addr:city": "San Pedro de Coayllo", "addr:district": "Coayllo", "addr:full": "Jiron Jorge Chavez S/n", "addr:province": "Ca\u00f1ete", "addr:street": "Jir\u00f3n Jorge Ch\u00e1vez", "addr:subdistrict": "Coayllo", "amenity": "school", "ele": "278", "isced:level": "1;2", "name": "Instituci\u00f3n Educativa 20133 Francisco Bolognesi", "note": "Gps_otras_fuentes (local)", "ref": "0517086;0600056", "source": "minedu.gob.pe"}}, {"type": "way", "id": 572930157, "nodes": [5504064130, 5504064131, 5504064132, 5504064133, 5504064134, 5504064135, 5504064136, 5504064137, 5504064138, 5504064139, 5504064130], "tags": {"addr:city": "San Pedro de Coayllo", "amenity": "place_of_worship", "building": "yes", "denomination": "catholic", "name": "Templo San Pedro de Coayllo", "religion": "christian"}}, {"type": "way", "id": 572930178, "nodes": [5504064244, 5504064245, 5504064246, 5504064247, 5504064244], "tags": {"addr:city": "San Pedro de Coayllo", "addr:street": "Jir\u00f3n Bolognesi", "amenity": "clinic", "building": "yes", "healthcare": "clinic", "healthcare:speciality": "general", "name": "Puesto de Salud Coayllo", "operator": "Gobierno Regional", "phone": "+51 1 6949627", "ref": "00006057", "ref:category": "I-1", "ref:microred": "1", "ref:red": "8"}}, {"type": "way", "id": 860486430, "nodes": [8019660094, 8019660095, 8019660096, 8019660097, 8019660098, 8019660099, 8019660100, 8019660101, 8019660102, 8019649084, 8019660085, 8019660088, 8019660089, 8019660090, 8019660091, 8019660092, 8019660093, 8019660086, 8019660087, 8019660094], "tags": {"amenity": "shelter", "building": "yes", "shelter_type": "gazebo"}}]}